{"type": "FeatureCollection", "features": [{"type": "Feature", "geometry": {"type": "Point", "coordinates": [80.347778, 13.311533]}, "properties": {"Section_ID": "S001", "Shore_Class": "non_mangrove", "Mangrove_Dist_m": null}}, {"type": "Feature", "geometry": {"type": "Point", "coordinates": [80.34723, 13.309181]}, "properties": {"Section_ID": "S002", "Shore_Class": "non_mangrove", "Mangrove_Dist_m": null}}, {"type": "Feature", "geometry": {"type": "Point", "coordinates": [80.346689, 13.304478]}, "properties": {"Section_ID": "S003", "Shore_Class": "non_mangrove", "Mangrove_Dist_m": null}}, {"type": "Feature", "geometry": {"type": "Point", "coordinates": [80.347258, 13.298692]}, "properties": {"Section_ID": "S004", "Shore_Class": "non_mangrove", "Mangrove_Dist_m": null}}, {"type": "Feature", "geometry": {"type": "Point", "coordinates": [80.350774, 13.295808]}, "properties": {"Section_ID": "S005", "Shore_Class": "non_mangrove", "Mangrove_Dist_m": null}}, {"type": "Feature", "geometry": {"type": "Point", "coordinates": [80.347843, 13.286939]}, "properties": {"Section_ID": "S006", "Shore_Class": "non_mangrove", "Mangrove_Dist_m": null}}, {"type": "Feature", "geometry": {"type": "Point", "coordinates": [80.339011, 13.275704]}, "properties": {"Section_ID": "S007", "Shore_Class": "non_mangrove", "Mangrove_Dist_m": null}}, {"type": "Feature", "geometry": {"type": "Point", "coordinates": [80.337751, 13.263766]}, "properties": {"Section_ID": "S008", "Shore_Class": "non_mangrove", "Mangrove_Dist_m": null}}, {"type": "Feature", "geometry": {"type": "Point", "coordinates": [80.330916, 13.231468]}, "properties": {"Section_ID": "S009", "Shore_Class": "mangrove", "Mangrove_Dist_m": 744.4}}, {"type": "Feature", "geometry": {"type": "Point", "coordinates": [80.331107, 13.229298]}, "properties": {"Section_ID": "S010", "Shore_Class": "mangrove", "Mangrove_Dist_m": 800.3}}, {"type": "Feature", "geometry": {"type": "Point", "coordinates": [80.329824, 13.22604]}, "properties": {"Section_ID": "S011", "Shore_Class": "mangrove", "Mangrove_Dist_m": 863.9}}, {"type": "Feature", "geometry": {"type": "Point", "coordinates": [80.328355, 13.222962]}, "properties": {"Section_ID": "S012", "Shore_Class": "mangrove", "Mangrove_Dist_m": 133.0}}, {"type": "Feature", "geometry": {"type": "Point", "coordinates": [80.327257, 13.219523]}, "properties": {"Section_ID": "S013", "Shore_Class": "mangrove", "Mangrove_Dist_m": 310.9}}, {"type": "Feature", "geometry": {"type": "Point", "coordinates": [80.325885, 13.215089]}, "properties": {"Section_ID": "S014", "Shore_Class": "mangrove", "Mangrove_Dist_m": 425.5}}, {"type": "Feature", "geometry": {"type": "Point", "coordinates": [80.324787, 13.21165]}, "properties": {"Section_ID": "S015", "Shore_Class": "mangrove", "Mangrove_Dist_m": 459.6}}, {"type": "Feature", "geometry": {"type": "Point", "coordinates": [80.322861, 13.207214]}, "properties": {"Section_ID": "S016", "Shore_Class": "mangrove", "Mangrove_Dist_m": 343.6}}, {"type": "Feature", "geometry": {"type": "Point", "coordinates": [80.322595, 13.203506]}, "properties": {"Section_ID": "S017", "Shore_Class": "non_mangrove", "Mangrove_Dist_m": null}}, {"type": "Feature", "geometry": {"type": "Point", "coordinates": [80.321312, 13.200248]}, "properties": {"Section_ID": "S018", "Shore_Class": "mangrove", "Mangrove_Dist_m": 361.2}}, {"type": "Feature", "geometry": {"type": "Point", "coordinates": [80.320397, 13.197171]}, "properties": {"Section_ID": "S019", "Shore_Class": "mangrove", "Mangrove_Dist_m": 533.7}}, {"type": "Feature", "geometry": {"type": "Point", "coordinates": [80.319022, 13.194003]}, "properties": {"Section_ID": "S020", "Shore_Class": "mangrove", "Mangrove_Dist_m": 608.6}}, {"type": "Feature", "geometry": {"type": "Point", "coordinates": [80.318291, 13.191288]}, "properties": {"Section_ID": "S021", "Shore_Class": "mangrove", "Mangrove_Dist_m": 621.9}}, {"type": "Feature", "geometry": {"type": "Point", "coordinates": [80.317286, 13.187759]}, "properties": {"Section_ID": "S022", "Shore_Class": "mangrove", "Mangrove_Dist_m": 693.8}}, {"type": "Feature", "geometry": {"type": "Point", "coordinates": [80.316836, 13.183689]}, "properties": {"Section_ID": "S023", "Shore_Class": "mangrove", "Mangrove_Dist_m": 809.1}}, {"type": "Feature", "geometry": {"type": "Point", "coordinates": [80.315827, 13.181245]}, "properties": {"Section_ID": "S024", "Shore_Class": "mangrove", "Mangrove_Dist_m": 822.4}}, {"type": "Feature", "geometry": {"type": "Point", "coordinates": [80.314359, 13.178167]}, "properties": {"Section_ID": "S025", "Shore_Class": "non_mangrove", "Mangrove_Dist_m": null}}, {"type": "Feature", "geometry": {"type": "Point", "coordinates": [80.312984, 13.174998]}, "properties": {"Section_ID": "S026", "Shore_Class": "mangrove", "Mangrove_Dist_m": 928.8}}, {"type": "Feature", "geometry": {"type": "Point", "coordinates": [80.311979, 13.171469]}, "properties": {"Section_ID": "S027", "Shore_Class": "non_mangrove", "Mangrove_Dist_m": null}}, {"type": "Feature", "geometry": {"type": "Point", "coordinates": [80.310789, 13.168121]}, "properties": {"Section_ID": "S028", "Shore_Class": "non_mangrove", "Mangrove_Dist_m": null}}, {"type": "Feature", "geometry": {"type": "Point", "coordinates": [80.307491, 13.159431]}, "properties": {"Section_ID": "S029", "Shore_Class": "non_mangrove", "Mangrove_Dist_m": null}}, {"type": "Feature", "geometry": {"type": "Point", "coordinates": [80.306392, 13.156535]}, "properties": {"Section_ID": "S030", "Shore_Class": "non_mangrove", "Mangrove_Dist_m": null}}, {"type": "Feature", "geometry": {"type": "Point", "coordinates": [80.303917, 13.151013]}, "properties": {"Section_ID": "S031", "Shore_Class": "non_mangrove", "Mangrove_Dist_m": null}}, {"type": "Feature", "geometry": {"type": "Point", "coordinates": [80.302542, 13.147844]}, "properties": {"Section_ID": "S032", "Shore_Class": "non_mangrove", "Mangrove_Dist_m": null}}, {"type": "Feature", "geometry": {"type": "Point", "coordinates": [80.299792, 13.141507]}, "properties": {"Section_ID": "S033", "Shore_Class": "non_mangrove", "Mangrove_Dist_m": null}}, {"type": "Feature", "geometry": {"type": "Point", "coordinates": [80.298969, 13.138883]}, "properties": {"Section_ID": "S034", "Shore_Class": "non_mangrove", "Mangrove_Dist_m": null}}, {"type": "Feature", "geometry": {"type": "Point", "coordinates": [80.298425, 13.135445]}, "properties": {"Section_ID": "S035", "Shore_Class": "non_mangrove", "Mangrove_Dist_m": null}}, {"type": "Feature", "geometry": {"type": "Point", "coordinates": [80.298986, 13.132915]}, "properties": {"Section_ID": "S036", "Shore_Class": "non_mangrove", "Mangrove_Dist_m": null}}, {"type": "Feature", "geometry": {"type": "Point", "coordinates": [80.299831, 13.127764]}, "properties": {"Section_ID": "S037", "Shore_Class": "non_mangrove", "Mangrove_Dist_m": null}}, {"type": "Feature", "geometry": {"type": "Point", "coordinates": [80.298175, 13.125951]}, "properties": {"Section_ID": "S038", "Shore_Class": "non_mangrove", "Mangrove_Dist_m": null}}, {"type": "Feature", "geometry": {"type": "Point", "coordinates": [80.299567, 13.123151]}, "properties": {"Section_ID": "S039", "Shore_Class": "non_mangrove", "Mangrove_Dist_m": null}}, {"type": "Feature", "geometry": {"type": "Point", "coordinates": [80.300126, 13.121344]}, "properties": {"Section_ID": "S040", "Shore_Class": "non_mangrove", "Mangrove_Dist_m": null}}, {"type": "Feature", "geometry": {"type": "Point", "coordinates": [80.301518, 13.118184]}, "properties": {"Section_ID": "S041", "Shore_Class": "non_mangrove", "Mangrove_Dist_m": null}}, {"type": "Feature", "geometry": {"type": "Point", "coordinates": [80.301528, 13.114748]}, "properties": {"Section_ID": "S042", "Shore_Class": "non_mangrove", "Mangrove_Dist_m": null}}, {"type": "Feature", "geometry": {"type": "Point", "coordinates": [80.300708, 13.111219]}, "properties": {"Section_ID": "S043", "Shore_Class": "non_mangrove", "Mangrove_Dist_m": null}}, {"type": "Feature", "geometry": {"type": "Point", "coordinates": [80.299064, 13.105428]}, "properties": {"Section_ID": "S044", "Shore_Class": "non_mangrove", "Mangrove_Dist_m": null}}, {"type": "Feature", "geometry": {"type": "Point", "coordinates": [80.297689, 13.102259]}, "properties": {"Section_ID": "S045", "Shore_Class": "non_mangrove", "Mangrove_Dist_m": null}}, {"type": "Feature", "geometry": {"type": "Point", "coordinates": [80.295219, 13.094928]}, "properties": {"Section_ID": "S046", "Shore_Class": "non_mangrove", "Mangrove_Dist_m": null}}, {"type": "Feature", "geometry": {"type": "Point", "coordinates": [80.294398, 13.091761]}, "properties": {"Section_ID": "S047", "Shore_Class": "non_mangrove", "Mangrove_Dist_m": null}}, {"type": "Feature", "geometry": {"type": "Point", "coordinates": [80.3038, 13.093957]}, "properties": {"Section_ID": "S048", "Shore_Class": "non_mangrove", "Mangrove_Dist_m": null}}, {"type": "Feature", "geometry": {"type": "Point", "coordinates": [80.303258, 13.089977]}, "properties": {"Section_ID": "S049", "Shore_Class": "non_mangrove", "Mangrove_Dist_m": null}}, {"type": "Feature", "geometry": {"type": "Point", "coordinates": [80.301051, 13.08762]}, "properties": {"Section_ID": "S050", "Shore_Class": "non_mangrove", "Mangrove_Dist_m": null}}, {"type": "Feature", "geometry": {"type": "Point", "coordinates": [80.295906, 13.080553]}, "properties": {"Section_ID": "S051", "Shore_Class": "non_mangrove", "Mangrove_Dist_m": null}}, {"type": "Feature", "geometry": {"type": "Point", "coordinates": [80.29416, 13.077926]}, "properties": {"Section_ID": "S052", "Shore_Class": "non_mangrove", "Mangrove_Dist_m": null}}, {"type": "Feature", "geometry": {"type": "Point", "coordinates": [80.290585, 13.070231]}, "properties": {"Section_ID": "S053", "Shore_Class": "non_mangrove", "Mangrove_Dist_m": null}}, {"type": "Feature", "geometry": {"type": "Point", "coordinates": [80.285371, 13.055116]}, "properties": {"Section_ID": "S054", "Shore_Class": "non_mangrove", "Mangrove_Dist_m": null}}, {"type": "Feature", "geometry": {"type": "Point", "coordinates": [80.284549, 13.052492]}, "properties": {"Section_ID": "S055", "Shore_Class": "non_mangrove", "Mangrove_Dist_m": null}}, {"type": "Feature", "geometry": {"type": "Point", "coordinates": [80.284004, 13.049597]}, "properties": {"Section_ID": "S056", "Shore_Class": "non_mangrove", "Mangrove_Dist_m": null}}, {"type": "Feature", "geometry": {"type": "Point", "coordinates": [80.281542, 13.039553]}, "properties": {"Section_ID": "S057", "Shore_Class": "non_mangrove", "Mangrove_Dist_m": null}}, {"type": "Feature", "geometry": {"type": "Point", "coordinates": [80.279909, 13.030326]}, "properties": {"Section_ID": "S058", "Shore_Class": "non_mangrove", "Mangrove_Dist_m": null}}, {"type": "Feature", "geometry": {"type": "Point", "coordinates": [80.279364, 13.027431]}, "properties": {"Section_ID": "S059", "Shore_Class": "non_mangrove", "Mangrove_Dist_m": null}}, {"type": "Feature", "geometry": {"type": "Point", "coordinates": [80.278822, 13.023451]}, "properties": {"Section_ID": "S060", "Shore_Class": "non_mangrove", "Mangrove_Dist_m": null}}, {"type": "Feature", "geometry": {"type": "Point", "coordinates": [80.278276, 13.021099]}, "properties": {"Section_ID": "S061", "Shore_Class": "non_mangrove", "Mangrove_Dist_m": null}}, {"type": "Feature", "geometry": {"type": "Point", "coordinates": [80.278007, 13.018476]}, "properties": {"Section_ID": "S062", "Shore_Class": "non_mangrove", "Mangrove_Dist_m": null}}, {"type": "Feature", "geometry": {"type": "Point", "coordinates": [80.274177, 13.003455]}, "properties": {"Section_ID": "S063", "Shore_Class": "non_mangrove", "Mangrove_Dist_m": null}}, {"type": "Feature", "geometry": {"type": "Point", "coordinates": [80.272536, 12.997121]}, "properties": {"Section_ID": "S064", "Shore_Class": "non_mangrove", "Mangrove_Dist_m": null}}, {"type": "Feature", "geometry": {"type": "Point", "coordinates": [80.27144, 12.993682]}, "properties": {"Section_ID": "S065", "Shore_Class": "non_mangrove", "Mangrove_Dist_m": null}}, {"type": "Feature", "geometry": {"type": "Point", "coordinates": [80.267616, 12.976853]}, "properties": {"Section_ID": "S066", "Shore_Class": "non_mangrove", "Mangrove_Dist_m": null}}, {"type": "Feature", "geometry": {"type": "Point", "coordinates": [80.266797, 12.973144]}, "properties": {"Section_ID": "S067", "Shore_Class": "non_mangrove", "Mangrove_Dist_m": null}}, {"type": "Feature", "geometry": {"type": "Point", "coordinates": [80.264615, 12.962649]}, "properties": {"Section_ID": "S068", "Shore_Class": "non_mangrove", "Mangrove_Dist_m": null}}, {"type": "Feature", "geometry": {"type": "Point", "coordinates": [80.263797, 12.958758]}, "properties": {"Section_ID": "S069", "Shore_Class": "non_mangrove", "Mangrove_Dist_m": null}}, {"type": "Feature", "geometry": {"type": "Point", "coordinates": [80.261889, 12.949259]}, "properties": {"Section_ID": "S070", "Shore_Class": "non_mangrove", "Mangrove_Dist_m": null}}, {"type": "Feature", "geometry": {"type": "Point", "coordinates": [80.259256, 12.935598]}, "properties": {"Section_ID": "S071", "Shore_Class": "non_mangrove", "Mangrove_Dist_m": null}}, {"type": "Feature", "geometry": {"type": "Point", "coordinates": [80.258898, 12.93198]}, "properties": {"Section_ID": "S072", "Shore_Class": "non_mangrove", "Mangrove_Dist_m": null}}, {"type": "Feature", "geometry": {"type": "Point", "coordinates": [80.258357, 12.927819]}, "properties": {"Section_ID": "S073", "Shore_Class": "non_mangrove", "Mangrove_Dist_m": null}}, {"type": "Feature", "geometry": {"type": "Point", "coordinates": [80.257004, 12.917778]}, "properties": {"Section_ID": "S074", "Shore_Class": "non_mangrove", "Mangrove_Dist_m": null}}, {"type": "Feature", "geometry": {"type": "Point", "coordinates": [80.256463, 12.913798]}, "properties": {"Section_ID": "S075", "Shore_Class": "non_mangrove", "Mangrove_Dist_m": null}}, {"type": "Feature", "geometry": {"type": "Point", "coordinates": [80.25538, 12.905838]}, "properties": {"Section_ID": "S076", "Shore_Class": "non_mangrove", "Mangrove_Dist_m": null}}, {"type": "Feature", "geometry": {"type": "Point", "coordinates": [80.337652, 13.266207]}, "properties": {"Section_ID": "S077", "Shore_Class": "mangrove", "Mangrove_Dist_m": 500.4}}, {"type": "Feature", "geometry": {"type": "Point", "coordinates": [80.295762, 13.098728]}, "properties": {"Section_ID": "S078", "Shore_Class": "non_mangrove", "Mangrove_Dist_m": null}}, {"type": "Feature", "geometry": {"type": "Point", "coordinates": [80.295488, 13.097823]}, "properties": {"Section_ID": "S079", "Shore_Class": "non_mangrove", "Mangrove_Dist_m": null}}, {"type": "Feature", "geometry": {"type": "Point", "coordinates": [80.299829, 13.128396]}, "properties": {"Section_ID": "S080", "Shore_Class": "non_mangrove", "Mangrove_Dist_m": null}}, {"type": "Feature", "geometry": {"type": "Point", "coordinates": [80.300064, 13.110403]}, "properties": {"Section_ID": "S081", "Shore_Class": "non_mangrove", "Mangrove_Dist_m": null}}]}