{"type": "FeatureCollection", "crs": {"type": "name", "properties": {"name": "EPSG:32644"}}, "features": [{"type": "Feature", "geometry": {"type": "Point", "coordinates": [427439.29, 1462900.71]}, "properties": {"d": -100.0, "s": 9, "Shore_Class": "mangrove"}}, {"type": "Feature", "geometry": {"type": "Point", "coordinates": [427446.36, 1462893.64]}, "properties": {"d": -90.0, "s": 9, "Shore_Class": "mangrove"}}, {"type": "Feature", "geometry": {"type": "Point", "coordinates": [427453.43, 1462886.57]}, "properties": {"d": -80.0, "s": 9, "Shore_Class": "mangrove"}}, {"type": "Feature", "geometry": {"type": "Point", "coordinates": [427460.5, 1462879.5]}, "properties": {"d": -70.0, "s": 9, "Shore_Class": "mangrove"}}, {"type": "Feature", "geometry": {"type": "Point", "coordinates": [427467.57, 1462872.43]}, "properties": {"d": -60.0, "s": 9, "Shore_Class": "mangrove"}}, {"type": "Feature", "geometry": {"type": "Point", "coordinates": [427474.64, 1462865.36]}, "properties": {"d": -50.0, "s": 9, "Shore_Class": "mangrove"}}, {"type": "Feature", "geometry": {"type": "Point", "coordinates": [427481.72, 1462858.28]}, "properties": {"d": -40.0, "s": 9, "Shore_Class": "mangrove"}}, {"type": "Feature", "geometry": {"type": "Point", "coordinates": [427488.79, 1462851.21]}, "properties": {"d": -30.0, "s": 9, "Shore_Class": "mangrove"}}, {"type": "Feature", "geometry": {"type": "Point", "coordinates": [427495.86, 1462844.14]}, "properties": {"d": -20.0, "s": 9, "Shore_Class": "mangrove"}}, {"type": "Feature", "geometry": {"type": "Point", "coordinates": [427502.93, 1462837.07]}, "properties": {"d": -10.0, "s": 9, "Shore_Class": "mangrove"}}, {"type": "Feature", "geometry": {"type": "Point", "coordinates": [427510.0, 1462830.0]}, "properties": {"d": 0.0, "s": 9, "Shore_Class": "mangrove"}}, {"type": "Feature", "geometry": {"type": "Point", "coordinates": [427517.07, 1462822.93]}, "properties": {"d": 10.0, "s": 9, "Shore_Class": "mangrove"}}, {"type": "Feature", "geometry": {"type": "Point", "coordinates": [427524.14, 1462815.86]}, "properties": {"d": 20.0, "s": 9, "Shore_Class": "mangrove"}}, {"type": "Feature", "geometry": {"type": "Point", "coordinates": [427531.21, 1462808.79]}, "properties": {"d": 30.0, "s": 9, "Shore_Class": "mangrove"}}, {"type": "Feature", "geometry": {"type": "Point", "coordinates": [427538.28, 1462801.72]}, "properties": {"d": 40.0, "s": 9, "Shore_Class": "mangrove"}}, {"type": "Feature", "geometry": {"type": "Point", "coordinates": [427545.36, 1462794.64]}, "properties": {"d": 50.0, "s": 9, "Shore_Class": "mangrove"}}, {"type": "Feature", "geometry": {"type": "Point", "coordinates": [427552.43, 1462787.57]}, "properties": {"d": 60.0, "s": 9, "Shore_Class": "mangrove"}}, {"type": "Feature", "geometry": {"type": "Point", "coordinates": [427559.5, 1462780.5]}, "properties": {"d": 70.0, "s": 9, "Shore_Class": "mangrove"}}, {"type": "Feature", "geometry": {"type": "Point", "coordinates": [427566.57, 1462773.43]}, "properties": {"d": 80.0, "s": 9, "Shore_Class": "mangrove"}}, {"type": "Feature", "geometry": {"type": "Point", "coordinates": [427573.64, 1462766.36]}, "properties": {"d": 90.0, "s": 9, "Shore_Class": "mangrove"}}, {"type": "Feature", "geometry": {"type": "Point", "coordinates": [427580.71, 1462759.29]}, "properties": {"d": 100.0, "s": 9, "Shore_Class": "mangrove"}}, {"type": "Feature", "geometry": {"type": "Point", "coordinates": [427587.78, 1462752.22]}, "properties": {"d": 110.0, "s": 9, "Shore_Class": "mangrove"}}, {"type": "Feature", "geometry": {"type": "Point", "coordinates": [427594.85, 1462745.15]}, "properties": {"d": 120.0, "s": 9, "Shore_Class": "mangrove"}}, {"type": "Feature", "geometry": {"type": "Point", "coordinates": [427601.92, 1462738.08]}, "properties": {"d": 130.0, "s": 9, "Shore_Class": "mangrove"}}, {"type": "Feature", "geometry": {"type": "Point", "coordinates": [427608.99, 1462731.01]}, "properties": {"d": 140.0, "s": 9, "Shore_Class": "mangrove"}}, {"type": "Feature", "geometry": {"type": "Point", "coordinates": [427616.07, 1462723.93]}, "properties": {"d": 150.0, "s": 9, "Shore_Class": "mangrove"}}, {"type": "Feature", "geometry": {"type": "Point", "coordinates": [427459.29, 1462660.71]}, "properties": {"d": -100.0, "s": 10, "Shore_Class": "mangrove"}}, {"type": "Feature", "geometry": {"type": "Point", "coordinates": [427466.36, 1462653.64]}, "properties": {"d": -90.0, "s": 10, "Shore_Class": "mangrove"}}, {"type": "Feature", "geometry": {"type": "Point", "coordinates": [427473.43, 1462646.57]}, "properties": {"d": -80.0, "s": 10, "Shore_Class": "mangrove"}}, {"type": "Feature", "geometry": {"type": "Point", "coordinates": [427480.5, 1462639.5]}, "properties": {"d": -70.0, "s": 10, "Shore_Class": "mangrove"}}, {"type": "Feature", "geometry": {"type": "Point", "coordinates": [427487.57, 1462632.43]}, "properties": {"d": -60.0, "s": 10, "Shore_Class": "mangrove"}}, {"type": "Feature", "geometry": {"type": "Point", "coordinates": [427494.64, 1462625.36]}, "properties": {"d": -50.0, "s": 10, "Shore_Class": "mangrove"}}, {"type": "Feature", "geometry": {"type": "Point", "coordinates": [427501.72, 1462618.28]}, "properties": {"d": -40.0, "s": 10, "Shore_Class": "mangrove"}}, {"type": "Feature", "geometry": {"type": "Point", "coordinates": [427508.79, 1462611.21]}, "properties": {"d": -30.0, "s": 10, "Shore_Class": "mangrove"}}, {"type": "Feature", "geometry": {"type": "Point", "coordinates": [427515.86, 1462604.14]}, "properties": {"d": -20.0, "s": 10, "Shore_Class": "mangrove"}}, {"type": "Feature", "geometry": {"type": "Point", "coordinates": [427522.93, 1462597.07]}, "properties": {"d": -10.0, "s": 10, "Shore_Class": "mangrove"}}, {"type": "Feature", "geometry": {"type": "Point", "coordinates": [427530.0, 1462590.0]}, "properties": {"d": 0.0, "s": 10, "Shore_Class": "mangrove"}}, {"type": "Feature", "geometry": {"type": "Point", "coordinates": [427537.07, 1462582.93]}, "properties": {"d": 10.0, "s": 10, "Shore_Class": "mangrove"}}, {"type": "Feature", "geometry": {"type": "Point", "coordinates": [427544.14, 1462575.86]}, "properties": {"d": 20.0, "s": 10, "Shore_Class": "mangrove"}}, {"type": "Feature", "geometry": {"type": "Point", "coordinates": [427551.21, 1462568.79]}, "properties": {"d": 30.0, "s": 10, "Shore_Class": "mangrove"}}, {"type": "Feature", "geometry": {"type": "Point", "coordinates": [427558.28, 1462561.72]}, "properties": {"d": 40.0, "s": 10, "Shore_Class": "mangrove"}}, {"type": "Feature", "geometry": {"type": "Point", "coordinates": [427565.36, 1462554.64]}, "properties": {"d": 50.0, "s": 10, "Shore_Class": "mangrove"}}, {"type": "Feature", "geometry": {"type": "Point", "coordinates": [427572.43, 1462547.57]}, "properties": {"d": 60.0, "s": 10, "Shore_Class": "mangrove"}}, {"type": "Feature", "geometry": {"type": "Point", "coordinates": [427579.5, 1462540.5]}, "properties": {"d": 70.0, "s": 10, "Shore_Class": "mangrove"}}, {"type": "Feature", "geometry": {"type": "Point", "coordinates": [427586.57, 1462533.43]}, "properties": {"d": 80.0, "s": 10, "Shore_Class": "mangrove"}}, {"type": "Feature", "geometry": {"type": "Point", "coordinates": [427593.64, 1462526.36]}, "properties": {"d": 90.0, "s": 10, "Shore_Class": "mangrove"}}, {"type": "Feature", "geometry": {"type": "Point", "coordinates": [427600.71, 1462519.29]}, "properties": {"d": 100.0, "s": 10, "Shore_Class": "mangrove"}}, {"type": "Feature", "geometry": {"type": "Point", "coordinates": [427607.78, 1462512.22]}, "properties": {"d": 110.0, "s": 10, "Shore_Class": "mangrove"}}, {"type": "Feature", "geometry": {"type": "Point", "coordinates": [427614.85, 1462505.15]}, "properties": {"d": 120.0, "s": 10, "Shore_Class": "mangrove"}}, {"type": "Feature", "geometry": {"type": "Point", "coordinates": [427621.92, 1462498.08]}, "properties": {"d": 130.0, "s": 10, "Shore_Class": "mangrove"}}, {"type": "Feature", "geometry": {"type": "Point", "coordinates": [427629.0, 1462491.01]}, "properties": {"d": 140.0, "s": 10, "Shore_Class": "mangrove"}}, {"type": "Feature", "geometry": {"type": "Point", "coordinates": [427636.07, 1462483.93]}, "properties": {"d": 150.0, "s": 10, "Shore_Class": "mangrove"}}, {"type": "Feature", "geometry": {"type": "Point", "coordinates": [427319.29, 1462300.71]}, "properties": {"d": -100.0, "s": 11, "Shore_Class": "mangrove"}}, {"type": "Feature", "geometry": {"type": "Point", "coordinates": [427326.36, 1462293.64]}, "properties": {"d": -90.0, "s": 11, "Shore_Class": "mangrove"}}, {"type": "Feature", "geometry": {"type": "Point", "coordinates": [427333.43, 1462286.57]}, "properties": {"d": -80.0, "s": 11, "Shore_Class": "mangrove"}}, {"type": "Feature", "geometry": {"type": "Point", "coordinates": [427340.5, 1462279.5]}, "properties": {"d": -70.0, "s": 11, "Shore_Class": "mangrove"}}, {"type": "Feature", "geometry": {"type": "Point", "coordinates": [427347.57, 1462272.43]}, "properties": {"d": -60.0, "s": 11, "Shore_Class": "mangrove"}}, {"type": "Feature", "geometry": {"type": "Point", "coordinates": [427354.64, 1462265.36]}, "properties": {"d": -50.0, "s": 11, "Shore_Class": "mangrove"}}, {"type": "Feature", "geometry": {"type": "Point", "coordinates": [427361.72, 1462258.28]}, "properties": {"d": -40.0, "s": 11, "Shore_Class": "mangrove"}}, {"type": "Feature", "geometry": {"type": "Point", "coordinates": [427368.79, 1462251.21]}, "properties": {"d": -30.0, "s": 11, "Shore_Class": "mangrove"}}, {"type": "Feature", "geometry": {"type": "Point", "coordinates": [427375.86, 1462244.14]}, "properties": {"d": -20.0, "s": 11, "Shore_Class": "mangrove"}}, {"type": "Feature", "geometry": {"type": "Point", "coordinates": [427382.93, 1462237.07]}, "properties": {"d": -10.0, "s": 11, "Shore_Class": "mangrove"}}, {"type": "Feature", "geometry": {"type": "Point", "coordinates": [427390.0, 1462230.0]}, "properties": {"d": 0.0, "s": 11, "Shore_Class": "mangrove"}}, {"type": "Feature", "geometry": {"type": "Point", "coordinates": [427397.07, 1462222.93]}, "properties": {"d": 10.0, "s": 11, "Shore_Class": "mangrove"}}, {"type": "Feature", "geometry": {"type": "Point", "coordinates": [427404.14, 1462215.86]}, "properties": {"d": 20.0, "s": 11, "Shore_Class": "mangrove"}}, {"type": "Feature", "geometry": {"type": "Point", "coordinates": [427411.21, 1462208.79]}, "properties": {"d": 30.0, "s": 11, "Shore_Class": "mangrove"}}, {"type": "Feature", "geometry": {"type": "Point", "coordinates": [427418.28, 1462201.72]}, "properties": {"d": 40.0, "s": 11, "Shore_Class": "mangrove"}}, {"type": "Feature", "geometry": {"type": "Point", "coordinates": [427425.36, 1462194.64]}, "properties": {"d": 50.0, "s": 11, "Shore_Class": "mangrove"}}, {"type": "Feature", "geometry": {"type": "Point", "coordinates": [427432.43, 1462187.57]}, "properties": {"d": 60.0, "s": 11, "Shore_Class": "mangrove"}}, {"type": "Feature", "geometry": {"type": "Point", "coordinates": [427439.5, 1462180.5]}, "properties": {"d": 70.0, "s": 11, "Shore_Class": "mangrove"}}, {"type": "Feature", "geometry": {"type": "Point", "coordinates": [427446.57, 1462173.43]}, "properties": {"d": 80.0, "s": 11, "Shore_Class": "mangrove"}}, {"type": "Feature", "geometry": {"type": "Point", "coordinates": [427453.64, 1462166.36]}, "properties": {"d": 90.0, "s": 11, "Shore_Class": "mangrove"}}, {"type": "Feature", "geometry": {"type": "Point", "coordinates": [427460.71, 1462159.29]}, "properties": {"d": 100.0, "s": 11, "Shore_Class": "mangrove"}}, {"type": "Feature", "geometry": {"type": "Point", "coordinates": [427467.78, 1462152.22]}, "properties": {"d": 110.0, "s": 11, "Shore_Class": "mangrove"}}, {"type": "Feature", "geometry": {"type": "Point", "coordinates": [427474.85, 1462145.15]}, "properties": {"d": 120.0, "s": 11, "Shore_Class": "mangrove"}}, {"type": "Feature", "geometry": {"type": "Point", "coordinates": [427481.92, 1462138.08]}, "properties": {"d": 130.0, "s": 11, "Shore_Class": "mangrove"}}, {"type": "Feature", "geometry": {"type": "Point", "coordinates": [427488.99, 1462131.01]}, "properties": {"d": 140.0, "s": 11, "Shore_Class": "mangrove"}}, {"type": "Feature", "geometry": {"type": "Point", "coordinates": [427496.07, 1462123.93]}, "properties": {"d": 150.0, "s": 11, "Shore_Class": "mangrove"}}, {"type": "Feature", "geometry": {"type": "Point", "coordinates": [427130.0, 1461890.0]}, "properties": {"d": -100.0, "s": 12, "Shore_Class": "mangrove"}}, {"type": "Feature", "geometry": {"type": "Point", "coordinates": [427140.0, 1461890.0]}, "properties": {"d": -90.0, "s": 12, "Shore_Class": "mangrove"}}, {"type": "Feature", "geometry": {"type": "Point", "coordinates": [427150.0, 1461890.0]}, "properties": {"d": -80.0, "s": 12, "Shore_Class": "mangrove"}}, {"type": "Feature", "geometry": {"type": "Point", "coordinates": [427160.0, 1461890.0]}, "properties": {"d": -70.0, "s": 12, "Shore_Class": "mangrove"}}, {"type": "Feature", "geometry": {"type": "Point", "coordinates": [427170.0, 1461890.0]}, "properties": {"d": -60.0, "s": 12, "Shore_Class": "mangrove"}}, {"type": "Feature", "geometry": {"type": "Point", "coordinates": [427180.0, 1461890.0]}, "properties": {"d": -50.0, "s": 12, "Shore_Class": "mangrove"}}, {"type": "Feature", "geometry": {"type": "Point", "coordinates": [427190.0, 1461890.0]}, "properties": {"d": -40.0, "s": 12, "Shore_Class": "mangrove"}}, {"type": "Feature", "geometry": {"type": "Point", "coordinates": [427200.0, 1461890.0]}, "properties": {"d": -30.0, "s": 12, "Shore_Class": "mangrove"}}, {"type": "Feature", "geometry": {"type": "Point", "coordinates": [427210.0, 1461890.0]}, "properties": {"d": -20.0, "s": 12, "Shore_Class": "mangrove"}}, {"type": "Feature", "geometry": {"type": "Point", "coordinates": [427220.0, 1461890.0]}, "properties": {"d": -10.0, "s": 12, "Shore_Class": "mangrove"}}, {"type": "Feature", "geometry": {"type": "Point", "coordinates": [427230.0, 1461890.0]}, "properties": {"d": 0.0, "s": 12, "Shore_Class": "mangrove"}}, {"type": "Feature", "geometry": {"type": "Point", "coordinates": [427240.0, 1461890.0]}, "properties": {"d": 10.0, "s": 12, "Shore_Class": "mangrove"}}, {"type": "Feature", "geometry": {"type": "Point", "coordinates": [427250.0, 1461890.0]}, "properties": {"d": 20.0, "s": 12, "Shore_Class": "mangrove"}}, {"type": "Feature", "geometry": {"type": "Point", "coordinates": [427260.0, 1461890.0]}, "properties": {"d": 30.0, "s": 12, "Shore_Class": "mangrove"}}, {"type": "Feature", "geometry": {"type": "Point", "coordinates": [427270.0, 1461890.0]}, "properties": {"d": 40.0, "s": 12, "Shore_Class": "mangrove"}}, {"type": "Feature", "geometry": {"type": "Point", "coordinates": [427280.0, 1461890.0]}, "properties": {"d": 50.0, "s": 12, "Shore_Class": "mangrove"}}, {"type": "Feature", "geometry": {"type": "Point", "coordinates": [427290.0, 1461890.0]}, "properties": {"d": 60.0, "s": 12, "Shore_Class": "mangrove"}}, {"type": "Feature", "geometry": {"type": "Point", "coordinates": [427300.0, 1461890.0]}, "properties": {"d": 70.0, "s": 12, "Shore_Class": "mangrove"}}, {"type": "Feature", "geometry": {"type": "Point", "coordinates": [427310.0, 1461890.0]}, "properties": {"d": 80.0, "s": 12, "Shore_Class": "mangrove"}}, {"type": "Feature", "geometry": {"type": "Point", "coordinates": [427320.0, 1461890.0]}, "properties": {"d": 90.0, "s": 12, "Shore_Class": "mangrove"}}, {"type": "Feature", "geometry": {"type": "Point", "coordinates": [427330.0, 1461890.0]}, "properties": {"d": 100.0, "s": 12, "Shore_Class": "mangrove"}}, {"type": "Feature", "geometry": {"type": "Point", "coordinates": [427340.0, 1461890.0]}, "properties": {"d": 110.0, "s": 12, "Shore_Class": "mangrove"}}, {"type": "Feature", "geometry": {"type": "Point", "coordinates": [427350.0, 1461890.0]}, "properties": {"d": 120.0, "s": 12, "Shore_Class": "mangrove"}}, {"type": "Feature", "geometry": {"type": "Point", "coordinates": [427360.0, 1461890.0]}, "properties": {"d": 130.0, "s": 12, "Shore_Class": "mangrove"}}, {"type": "Feature", "geometry": {"type": "Point", "coordinates": [427370.0, 1461890.0]}, "properties": {"d": 140.0, "s": 12, "Shore_Class": "mangrove"}}, {"type": "Feature", "geometry": {"type": "Point", "coordinates": [427380.0, 1461890.0]}, "properties": {"d": 150.0, "s": 12, "Shore_Class": "mangrove"}}, {"type": "Feature", "geometry": {"type": "Point", "coordinates": [427010.0, 1461510.0]}, "properties": {"d": -100.0, "s": 13, "Shore_Class": "mangrove"}}, {"type": "Feature", "geometry": {"type": "Point", "coordinates": [427020.0, 1461510.0]}, "properties": {"d": -90.0, "s": 13, "Shore_Class": "mangrove"}}, {"type": "Feature", "geometry": {"type": "Point", "coordinates": [427030.0, 1461510.0]}, "properties": {"d": -80.0, "s": 13, "Shore_Class": "mangrove"}}, {"type": "Feature", "geometry": {"type": "Point", "coordinates": [427040.0, 1461510.0]}, "properties": {"d": -70.0, "s": 13, "Shore_Class": "mangrove"}}, {"type": "Feature", "geometry": {"type": "Point", "coordinates": [427050.0, 1461510.0]}, "properties": {"d": -60.0, "s": 13, "Shore_Class": "mangrove"}}, {"type": "Feature", "geometry": {"type": "Point", "coordinates": [427060.0, 1461510.0]}, "properties": {"d": -50.0, "s": 13, "Shore_Class": "mangrove"}}, {"type": "Feature", "geometry": {"type": "Point", "coordinates": [427070.0, 1461510.0]}, "properties": {"d": -40.0, "s": 13, "Shore_Class": "mangrove"}}, {"type": "Feature", "geometry": {"type": "Point", "coordinates": [427080.0, 1461510.0]}, "properties": {"d": -30.0, "s": 13, "Shore_Class": "mangrove"}}, {"type": "Feature", "geometry": {"type": "Point", "coordinates": [427090.0, 1461510.0]}, "properties": {"d": -20.0, "s": 13, "Shore_Class": "mangrove"}}, {"type": "Feature", "geometry": {"type": "Point", "coordinates": [427100.0, 1461510.0]}, "properties": {"d": -10.0, "s": 13, "Shore_Class": "mangrove"}}, {"type": "Feature", "geometry": {"type": "Point", "coordinates": [427110.0, 1461510.0]}, "properties": {"d": 0.0, "s": 13, "Shore_Class": "mangrove"}}, {"type": "Feature", "geometry": {"type": "Point", "coordinates": [427120.0, 1461510.0]}, "properties": {"d": 10.0, "s": 13, "Shore_Class": "mangrove"}}, {"type": "Feature", "geometry": {"type": "Point", "coordinates": [427130.0, 1461510.0]}, "properties": {"d": 20.0, "s": 13, "Shore_Class": "mangrove"}}, {"type": "Feature", "geometry": {"type": "Point", "coordinates": [427140.0, 1461510.0]}, "properties": {"d": 30.0, "s": 13, "Shore_Class": "mangrove"}}, {"type": "Feature", "geometry": {"type": "Point", "coordinates": [427150.0, 1461510.0]}, "properties": {"d": 40.0, "s": 13, "Shore_Class": "mangrove"}}, {"type": "Feature", "geometry": {"type": "Point", "coordinates": [427160.0, 1461510.0]}, "properties": {"d": 50.0, "s": 13, "Shore_Class": "mangrove"}}, {"type": "Feature", "geometry": {"type": "Point", "coordinates": [427170.0, 1461510.0]}, "properties": {"d": 60.0, "s": 13, "Shore_Class": "mangrove"}}, {"type": "Feature", "geometry": {"type": "Point", "coordinates": [427180.0, 1461510.0]}, "properties": {"d": 70.0, "s": 13, "Shore_Class": "mangrove"}}, {"type": "Feature", "geometry": {"type": "Point", "coordinates": [427190.0, 1461510.0]}, "properties": {"d": 80.0, "s": 13, "Shore_Class": "mangrove"}}, {"type": "Feature", "geometry": {"type": "Point", "coordinates": [427200.0, 1461510.0]}, "properties": {"d": 90.0, "s": 13, "Shore_Class": "mangrove"}}, {"type": "Feature", "geometry": {"type": "Point", "coordinates": [427210.0, 1461510.0]}, "properties": {"d": 100.0, "s": 13, "Shore_Class": "mangrove"}}, {"type": "Feature", "geometry": {"type": "Point", "coordinates": [427220.0, 1461510.0]}, "properties": {"d": 110.0, "s": 13, "Shore_Class": "mangrove"}}, {"type": "Feature", "geometry": {"type": "Point", "coordinates": [427230.0, 1461510.0]}, "properties": {"d": 120.0, "s": 13, "Shore_Class": "mangrove"}}, {"type": "Feature", "geometry": {"type": "Point", "coordinates": [427240.0, 1461510.0]}, "properties": {"d": 130.0, "s": 13, "Shore_Class": "mangrove"}}, {"type": "Feature", "geometry": {"type": "Point", "coordinates": [427250.0, 1461510.0]}, "properties": {"d": 140.0, "s": 13, "Shore_Class": "mangrove"}}, {"type": "Feature", "geometry": {"type": "Point", "coordinates": [427260.0, 1461510.0]}, "properties": {"d": 150.0, "s": 13, "Shore_Class": "mangrove"}}, {"type": "Feature", "geometry": {"type": "Point", "coordinates": [426860.0, 1461020.0]}, "properties": {"d": -100.0, "s": 14, "Shore_Class": "mangrove"}}, {"type": "Feature", "geometry": {"type": "Point", "coordinates": [426870.0, 1461020.0]}, "properties": {"d": -90.0, "s": 14, "Shore_Class": "mangrove"}}, {"type": "Feature", "geometry": {"type": "Point", "coordinates": [426880.0, 1461020.0]}, "properties": {"d": -80.0, "s": 14, "Shore_Class": "mangrove"}}, {"type": "Feature", "geometry": {"type": "Point", "coordinates": [426890.0, 1461020.0]}, "properties": {"d": -70.0, "s": 14, "Shore_Class": "mangrove"}}, {"type": "Feature", "geometry": {"type": "Point", "coordinates": [426900.0, 1461020.0]}, "properties": {"d": -60.0, "s": 14, "Shore_Class": "mangrove"}}, {"type": "Feature", "geometry": {"type": "Point", "coordinates": [426910.0, 1461020.0]}, "properties": {"d": -50.0, "s": 14, "Shore_Class": "mangrove"}}, {"type": "Feature", "geometry": {"type": "Point", "coordinates": [426920.0, 1461020.0]}, "properties": {"d": -40.0, "s": 14, "Shore_Class": "mangrove"}}, {"type": "Feature", "geometry": {"type": "Point", "coordinates": [426930.0, 1461020.0]}, "properties": {"d": -30.0, "s": 14, "Shore_Class": "mangrove"}}, {"type": "Feature", "geometry": {"type": "Point", "coordinates": [426940.0, 1461020.0]}, "properties": {"d": -20.0, "s": 14, "Shore_Class": "mangrove"}}, {"type": "Feature", "geometry": {"type": "Point", "coordinates": [426950.0, 1461020.0]}, "properties": {"d": -10.0, "s": 14, "Shore_Class": "mangrove"}}, {"type": "Feature", "geometry": {"type": "Point", "coordinates": [426960.0, 1461020.0]}, "properties": {"d": 0.0, "s": 14, "Shore_Class": "mangrove"}}, {"type": "Feature", "geometry": {"type": "Point", "coordinates": [426970.0, 1461020.0]}, "properties": {"d": 10.0, "s": 14, "Shore_Class": "mangrove"}}, {"type": "Feature", "geometry": {"type": "Point", "coordinates": [426980.0, 1461020.0]}, "properties": {"d": 20.0, "s": 14, "Shore_Class": "mangrove"}}, {"type": "Feature", "geometry": {"type": "Point", "coordinates": [426990.0, 1461020.0]}, "properties": {"d": 30.0, "s": 14, "Shore_Class": "mangrove"}}, {"type": "Feature", "geometry": {"type": "Point", "coordinates": [427000.0, 1461020.0]}, "properties": {"d": 40.0, "s": 14, "Shore_Class": "mangrove"}}, {"type": "Feature", "geometry": {"type": "Point", "coordinates": [427010.0, 1461020.0]}, "properties": {"d": 50.0, "s": 14, "Shore_Class": "mangrove"}}, {"type": "Feature", "geometry": {"type": "Point", "coordinates": [427020.0, 1461020.0]}, "properties": {"d": 60.0, "s": 14, "Shore_Class": "mangrove"}}, {"type": "Feature", "geometry": {"type": "Point", "coordinates": [427030.0, 1461020.0]}, "properties": {"d": 70.0, "s": 14, "Shore_Class": "mangrove"}}, {"type": "Feature", "geometry": {"type": "Point", "coordinates": [427040.0, 1461020.0]}, "properties": {"d": 80.0, "s": 14, "Shore_Class": "mangrove"}}, {"type": "Feature", "geometry": {"type": "Point", "coordinates": [427050.0, 1461020.0]}, "properties": {"d": 90.0, "s": 14, "Shore_Class": "mangrove"}}, {"type": "Feature", "geometry": {"type": "Point", "coordinates": [427060.0, 1461020.0]}, "properties": {"d": 100.0, "s": 14, "Shore_Class": "mangrove"}}, {"type": "Feature", "geometry": {"type": "Point", "coordinates": [427070.0, 1461020.0]}, "properties": {"d": 110.0, "s": 14, "Shore_Class": "mangrove"}}, {"type": "Feature", "geometry": {"type": "Point", "coordinates": [427080.0, 1461020.0]}, "properties": {"d": 120.0, "s": 14, "Shore_Class": "mangrove"}}, {"type": "Feature", "geometry": {"type": "Point", "coordinates": [427090.0, 1461020.0]}, "properties": {"d": 130.0, "s": 14, "Shore_Class": "mangrove"}}, {"type": "Feature", "geometry": {"type": "Point", "coordinates": [427100.0, 1461020.0]}, "properties": {"d": 140.0, "s": 14, "Shore_Class": "mangrove"}}, {"type": "Feature", "geometry": {"type": "Point", "coordinates": [427110.0, 1461020.0]}, "properties": {"d": 150.0, "s": 14, "Shore_Class": "mangrove"}}, {"type": "Feature", "geometry": {"type": "Point", "coordinates": [426769.29, 1460710.71]}, "properties": {"d": -100.0, "s": 15, "Shore_Class": "mangrove"}}, {"type": "Feature", "geometry": {"type": "Point", "coordinates": [426776.36, 1460703.64]}, "properties": {"d": -90.0, "s": 15, "Shore_Class": "mangrove"}}, {"type": "Feature", "geometry": {"type": "Point", "coordinates": [426783.43, 1460696.57]}, "properties": {"d": -80.0, "s": 15, "Shore_Class": "mangrove"}}, {"type": "Feature", "geometry": {"type": "Point", "coordinates": [426790.5, 1460689.5]}, "properties": {"d": -70.0, "s": 15, "Shore_Class": "mangrove"}}, {"type": "Feature", "geometry": {"type": "Point", "coordinates": [426797.57, 1460682.43]}, "properties": {"d": -60.0, "s": 15, "Shore_Class": "mangrove"}}, {"type": "Feature", "geometry": {"type": "Point", "coordinates": [426804.64, 1460675.36]}, "properties": {"d": -50.0, "s": 15, "Shore_Class": "mangrove"}}, {"type": "Feature", "geometry": {"type": "Point", "coordinates": [426811.72, 1460668.28]}, "properties": {"d": -40.0, "s": 15, "Shore_Class": "mangrove"}}, {"type": "Feature", "geometry": {"type": "Point", "coordinates": [426818.79, 1460661.21]}, "properties": {"d": -30.0, "s": 15, "Shore_Class": "mangrove"}}, {"type": "Feature", "geometry": {"type": "Point", "coordinates": [426825.86, 1460654.14]}, "properties": {"d": -20.0, "s": 15, "Shore_Class": "mangrove"}}, {"type": "Feature", "geometry": {"type": "Point", "coordinates": [426832.93, 1460647.07]}, "properties": {"d": -10.0, "s": 15, "Shore_Class": "mangrove"}}, {"type": "Feature", "geometry": {"type": "Point", "coordinates": [426840.0, 1460640.0]}, "properties": {"d": 0.0, "s": 15, "Shore_Class": "mangrove"}}, {"type": "Feature", "geometry": {"type": "Point", "coordinates": [426847.07, 1460632.93]}, "properties": {"d": 10.0, "s": 15, "Shore_Class": "mangrove"}}, {"type": "Feature", "geometry": {"type": "Point", "coordinates": [426854.14, 1460625.86]}, "properties": {"d": 20.0, "s": 15, "Shore_Class": "mangrove"}}, {"type": "Feature", "geometry": {"type": "Point", "coordinates": [426861.21, 1460618.79]}, "properties": {"d": 30.0, "s": 15, "Shore_Class": "mangrove"}}, {"type": "Feature", "geometry": {"type": "Point", "coordinates": [426868.28, 1460611.72]}, "properties": {"d": 40.0, "s": 15, "Shore_Class": "mangrove"}}, {"type": "Feature", "geometry": {"type": "Point", "coordinates": [426875.36, 1460604.64]}, "properties": {"d": 50.0, "s": 15, "Shore_Class": "mangrove"}}, {"type": "Feature", "geometry": {"type": "Point", "coordinates": [426882.43, 1460597.57]}, "properties": {"d": 60.0, "s": 15, "Shore_Class": "mangrove"}}, {"type": "Feature", "geometry": {"type": "Point", "coordinates": [426889.5, 1460590.5]}, "properties": {"d": 70.0, "s": 15, "Shore_Class": "mangrove"}}, {"type": "Feature", "geometry": {"type": "Point", "coordinates": [426896.57, 1460583.43]}, "properties": {"d": 80.0, "s": 15, "Shore_Class": "mangrove"}}, {"type": "Feature", "geometry": {"type": "Point", "coordinates": [426903.64, 1460576.36]}, "properties": {"d": 90.0, "s": 15, "Shore_Class": "mangrove"}}, {"type": "Feature", "geometry": {"type": "Point", "coordinates": [426910.71, 1460569.29]}, "properties": {"d": 100.0, "s": 15, "Shore_Class": "mangrove"}}, {"type": "Feature", "geometry": {"type": "Point", "coordinates": [426917.78, 1460562.22]}, "properties": {"d": 110.0, "s": 15, "Shore_Class": "mangrove"}}, {"type": "Feature", "geometry": {"type": "Point", "coordinates": [426924.85, 1460555.15]}, "properties": {"d": 120.0, "s": 15, "Shore_Class": "mangrove"}}, {"type": "Feature", "geometry": {"type": "Point", "coordinates": [426931.92, 1460548.08]}, "properties": {"d": 130.0, "s": 15, "Shore_Class": "mangrove"}}, {"type": "Feature", "geometry": {"type": "Point", "coordinates": [426939.0, 1460541.01]}, "properties": {"d": 140.0, "s": 15, "Shore_Class": "mangrove"}}, {"type": "Feature", "geometry": {"type": "Point", "coordinates": [426946.07, 1460533.93]}, "properties": {"d": 150.0, "s": 15, "Shore_Class": "mangrove"}}, {"type": "Feature", "geometry": {"type": "Point", "coordinates": [426540.56, 1460194.72]}, "properties": {"d": -100.0, "s": 16, "Shore_Class": "mangrove"}}, {"type": "Feature", "geometry": {"type": "Point", "coordinates": [426549.5, 1460190.25]}, "properties": {"d": -90.0, "s": 16, "Shore_Class": "mangrove"}}, {"type": "Feature", "geometry": {"type": "Point", "coordinates": [426558.45, 1460185.78]}, "properties": {"d": -80.0, "s": 16, "Shore_Class": "mangrove"}}, {"type": "Feature", "geometry": {"type": "Point", "coordinates": [426567.39, 1460181.31]}, "properties": {"d": -70.0, "s": 16, "Shore_Class": "mangrove"}}, {"type": "Feature", "geometry": {"type": "Point", "coordinates": [426576.33, 1460176.83]}, "properties": {"d": -60.0, "s": 16, "Shore_Class": "mangrove"}}, {"type": "Feature", "geometry": {"type": "Point", "coordinates": [426585.28, 1460172.36]}, "properties": {"d": -50.0, "s": 16, "Shore_Class": "mangrove"}}, {"type": "Feature", "geometry": {"type": "Point", "coordinates": [426594.22, 1460167.89]}, "properties": {"d": -40.0, "s": 16, "Shore_Class": "mangrove"}}, {"type": "Feature", "geometry": {"type": "Point", "coordinates": [426603.17, 1460163.42]}, "properties": {"d": -30.0, "s": 16, "Shore_Class": "mangrove"}}, {"type": "Feature", "geometry": {"type": "Point", "coordinates": [426612.11, 1460158.94]}, "properties": {"d": -20.0, "s": 16, "Shore_Class": "mangrove"}}, {"type": "Feature", "geometry": {"type": "Point", "coordinates": [426621.06, 1460154.47]}, "properties": {"d": -10.0, "s": 16, "Shore_Class": "mangrove"}}, {"type": "Feature", "geometry": {"type": "Point", "coordinates": [426630.0, 1460150.0]}, "properties": {"d": 0.0, "s": 16, "Shore_Class": "mangrove"}}, {"type": "Feature", "geometry": {"type": "Point", "coordinates": [426638.94, 1460145.53]}, "properties": {"d": 10.0, "s": 16, "Shore_Class": "mangrove"}}, {"type": "Feature", "geometry": {"type": "Point", "coordinates": [426647.89, 1460141.06]}, "properties": {"d": 20.0, "s": 16, "Shore_Class": "mangrove"}}, {"type": "Feature", "geometry": {"type": "Point", "coordinates": [426656.83, 1460136.58]}, "properties": {"d": 30.0, "s": 16, "Shore_Class": "mangrove"}}, {"type": "Feature", "geometry": {"type": "Point", "coordinates": [426665.78, 1460132.11]}, "properties": {"d": 40.0, "s": 16, "Shore_Class": "mangrove"}}, {"type": "Feature", "geometry": {"type": "Point", "coordinates": [426674.72, 1460127.64]}, "properties": {"d": 50.0, "s": 16, "Shore_Class": "mangrove"}}, {"type": "Feature", "geometry": {"type": "Point", "coordinates": [426683.67, 1460123.17]}, "properties": {"d": 60.0, "s": 16, "Shore_Class": "mangrove"}}, {"type": "Feature", "geometry": {"type": "Point", "coordinates": [426692.61, 1460118.7]}, "properties": {"d": 70.0, "s": 16, "Shore_Class": "mangrove"}}, {"type": "Feature", "geometry": {"type": "Point", "coordinates": [426701.55, 1460114.22]}, "properties": {"d": 80.0, "s": 16, "Shore_Class": "mangrove"}}, {"type": "Feature", "geometry": {"type": "Point", "coordinates": [426710.5, 1460109.75]}, "properties": {"d": 90.0, "s": 16, "Shore_Class": "mangrove"}}, {"type": "Feature", "geometry": {"type": "Point", "coordinates": [426719.44, 1460105.28]}, "properties": {"d": 100.0, "s": 16, "Shore_Class": "mangrove"}}, {"type": "Feature", "geometry": {"type": "Point", "coordinates": [426728.39, 1460100.81]}, "properties": {"d": 110.0, "s": 16, "Shore_Class": "mangrove"}}, {"type": "Feature", "geometry": {"type": "Point", "coordinates": [426737.33, 1460096.33]}, "properties": {"d": 120.0, "s": 16, "Shore_Class": "mangrove"}}, {"type": "Feature", "geometry": {"type": "Point", "coordinates": [426746.28, 1460091.86]}, "properties": {"d": 130.0, "s": 16, "Shore_Class": "mangrove"}}, {"type": "Feature", "geometry": {"type": "Point", "coordinates": [426755.22, 1460087.39]}, "properties": {"d": 140.0, "s": 16, "Shore_Class": "mangrove"}}, {"type": "Feature", "geometry": {"type": "Point", "coordinates": [426764.16, 1460082.92]}, "properties": {"d": 150.0, "s": 16, "Shore_Class": "mangrove"}}, {"type": "Feature", "geometry": {"type": "Point", "coordinates": [426389.29, 1459450.71]}, "properties": {"d": -100.0, "s": 18, "Shore_Class": "mangrove"}}, {"type": "Feature", "geometry": {"type": "Point", "coordinates": [426396.36, 1459443.64]}, "properties": {"d": -90.0, "s": 18, "Shore_Class": "mangrove"}}, {"type": "Feature", "geometry": {"type": "Point", "coordinates": [426403.43, 1459436.57]}, "properties": {"d": -80.0, "s": 18, "Shore_Class": "mangrove"}}, {"type": "Feature", "geometry": {"type": "Point", "coordinates": [426410.5, 1459429.5]}, "properties": {"d": -70.0, "s": 18, "Shore_Class": "mangrove"}}, {"type": "Feature", "geometry": {"type": "Point", "coordinates": [426417.57, 1459422.43]}, "properties": {"d": -60.0, "s": 18, "Shore_Class": "mangrove"}}, {"type": "Feature", "geometry": {"type": "Point", "coordinates": [426424.64, 1459415.36]}, "properties": {"d": -50.0, "s": 18, "Shore_Class": "mangrove"}}, {"type": "Feature", "geometry": {"type": "Point", "coordinates": [426431.72, 1459408.28]}, "properties": {"d": -40.0, "s": 18, "Shore_Class": "mangrove"}}, {"type": "Feature", "geometry": {"type": "Point", "coordinates": [426438.79, 1459401.21]}, "properties": {"d": -30.0, "s": 18, "Shore_Class": "mangrove"}}, {"type": "Feature", "geometry": {"type": "Point", "coordinates": [426445.86, 1459394.14]}, "properties": {"d": -20.0, "s": 18, "Shore_Class": "mangrove"}}, {"type": "Feature", "geometry": {"type": "Point", "coordinates": [426452.93, 1459387.07]}, "properties": {"d": -10.0, "s": 18, "Shore_Class": "mangrove"}}, {"type": "Feature", "geometry": {"type": "Point", "coordinates": [426460.0, 1459380.0]}, "properties": {"d": 0.0, "s": 18, "Shore_Class": "mangrove"}}, {"type": "Feature", "geometry": {"type": "Point", "coordinates": [426467.07, 1459372.93]}, "properties": {"d": 10.0, "s": 18, "Shore_Class": "mangrove"}}, {"type": "Feature", "geometry": {"type": "Point", "coordinates": [426474.14, 1459365.86]}, "properties": {"d": 20.0, "s": 18, "Shore_Class": "mangrove"}}, {"type": "Feature", "geometry": {"type": "Point", "coordinates": [426481.21, 1459358.79]}, "properties": {"d": 30.0, "s": 18, "Shore_Class": "mangrove"}}, {"type": "Feature", "geometry": {"type": "Point", "coordinates": [426488.28, 1459351.72]}, "properties": {"d": 40.0, "s": 18, "Shore_Class": "mangrove"}}, {"type": "Feature", "geometry": {"type": "Point", "coordinates": [426495.36, 1459344.64]}, "properties": {"d": 50.0, "s": 18, "Shore_Class": "mangrove"}}, {"type": "Feature", "geometry": {"type": "Point", "coordinates": [426502.43, 1459337.57]}, "properties": {"d": 60.0, "s": 18, "Shore_Class": "mangrove"}}, {"type": "Feature", "geometry": {"type": "Point", "coordinates": [426509.5, 1459330.5]}, "properties": {"d": 70.0, "s": 18, "Shore_Class": "mangrove"}}, {"type": "Feature", "geometry": {"type": "Point", "coordinates": [426516.57, 1459323.43]}, "properties": {"d": 80.0, "s": 18, "Shore_Class": "mangrove"}}, {"type": "Feature", "geometry": {"type": "Point", "coordinates": [426523.64, 1459316.36]}, "properties": {"d": 90.0, "s": 18, "Shore_Class": "mangrove"}}, {"type": "Feature", "geometry": {"type": "Point", "coordinates": [426530.71, 1459309.29]}, "properties": {"d": 100.0, "s": 18, "Shore_Class": "mangrove"}}, {"type": "Feature", "geometry": {"type": "Point", "coordinates": [426537.78, 1459302.22]}, "properties": {"d": 110.0, "s": 18, "Shore_Class": "mangrove"}}, {"type": "Feature", "geometry": {"type": "Point", "coordinates": [426544.85, 1459295.15]}, "properties": {"d": 120.0, "s": 18, "Shore_Class": "mangrove"}}, {"type": "Feature", "geometry": {"type": "Point", "coordinates": [426551.92, 1459288.08]}, "properties": {"d": 130.0, "s": 18, "Shore_Class": "mangrove"}}, {"type": "Feature", "geometry": {"type": "Point", "coordinates": [426558.99, 1459281.01]}, "properties": {"d": 140.0, "s": 18, "Shore_Class": "mangrove"}}, {"type": "Feature", "geometry": {"type": "Point", "coordinates": [426566.07, 1459273.93]}, "properties": {"d": 150.0, "s": 18, "Shore_Class": "mangrove"}}, {"type": "Feature", "geometry": {"type": "Point", "coordinates": [426261.94, 1459059.61]}, "properties": {"d": -100.0, "s": 19, "Shore_Class": "mangrove"}}, {"type": "Feature", "geometry": {"type": "Point", "coordinates": [426271.75, 1459057.65]}, "properties": {"d": -90.0, "s": 19, "Shore_Class": "mangrove"}}, {"type": "Feature", "geometry": {"type": "Point", "coordinates": [426281.55, 1459055.69]}, "properties": {"d": -80.0, "s": 19, "Shore_Class": "mangrove"}}, {"type": "Feature", "geometry": {"type": "Point", "coordinates": [426291.36, 1459053.73]}, "properties": {"d": -70.0, "s": 19, "Shore_Class": "mangrove"}}, {"type": "Feature", "geometry": {"type": "Point", "coordinates": [426301.17, 1459051.77]}, "properties": {"d": -60.0, "s": 19, "Shore_Class": "mangrove"}}, {"type": "Feature", "geometry": {"type": "Point", "coordinates": [426310.97, 1459049.81]}, "properties": {"d": -50.0, "s": 19, "Shore_Class": "mangrove"}}, {"type": "Feature", "geometry": {"type": "Point", "coordinates": [426320.78, 1459047.84]}, "properties": {"d": -40.0, "s": 19, "Shore_Class": "mangrove"}}, {"type": "Feature", "geometry": {"type": "Point", "coordinates": [426330.58, 1459045.88]}, "properties": {"d": -30.0, "s": 19, "Shore_Class": "mangrove"}}, {"type": "Feature", "geometry": {"type": "Point", "coordinates": [426340.39, 1459043.92]}, "properties": {"d": -20.0, "s": 19, "Shore_Class": "mangrove"}}, {"type": "Feature", "geometry": {"type": "Point", "coordinates": [426350.19, 1459041.96]}, "properties": {"d": -10.0, "s": 19, "Shore_Class": "mangrove"}}, {"type": "Feature", "geometry": {"type": "Point", "coordinates": [426360.0, 1459040.0]}, "properties": {"d": 0.0, "s": 19, "Shore_Class": "mangrove"}}, {"type": "Feature", "geometry": {"type": "Point", "coordinates": [426369.81, 1459038.04]}, "properties": {"d": 10.0, "s": 19, "Shore_Class": "mangrove"}}, {"type": "Feature", "geometry": {"type": "Point", "coordinates": [426379.61, 1459036.08]}, "properties": {"d": 20.0, "s": 19, "Shore_Class": "mangrove"}}, {"type": "Feature", "geometry": {"type": "Point", "coordinates": [426389.42, 1459034.12]}, "properties": {"d": 30.0, "s": 19, "Shore_Class": "mangrove"}}, {"type": "Feature", "geometry": {"type": "Point", "coordinates": [426399.22, 1459032.16]}, "properties": {"d": 40.0, "s": 19, "Shore_Class": "mangrove"}}, {"type": "Feature", "geometry": {"type": "Point", "coordinates": [426409.03, 1459030.19]}, "properties": {"d": 50.0, "s": 19, "Shore_Class": "mangrove"}}, {"type": "Feature", "geometry": {"type": "Point", "coordinates": [426418.83, 1459028.23]}, "properties": {"d": 60.0, "s": 19, "Shore_Class": "mangrove"}}, {"type": "Feature", "geometry": {"type": "Point", "coordinates": [426428.64, 1459026.27]}, "properties": {"d": 70.0, "s": 19, "Shore_Class": "mangrove"}}, {"type": "Feature", "geometry": {"type": "Point", "coordinates": [426438.45, 1459024.31]}, "properties": {"d": 80.0, "s": 19, "Shore_Class": "mangrove"}}, {"type": "Feature", "geometry": {"type": "Point", "coordinates": [426448.25, 1459022.35]}, "properties": {"d": 90.0, "s": 19, "Shore_Class": "mangrove"}}, {"type": "Feature", "geometry": {"type": "Point", "coordinates": [426458.06, 1459020.39]}, "properties": {"d": 100.0, "s": 19, "Shore_Class": "mangrove"}}, {"type": "Feature", "geometry": {"type": "Point", "coordinates": [426467.86, 1459018.43]}, "properties": {"d": 110.0, "s": 19, "Shore_Class": "mangrove"}}, {"type": "Feature", "geometry": {"type": "Point", "coordinates": [426477.67, 1459016.47]}, "properties": {"d": 120.0, "s": 19, "Shore_Class": "mangrove"}}, {"type": "Feature", "geometry": {"type": "Point", "coordinates": [426487.48, 1459014.51]}, "properties": {"d": 130.0, "s": 19, "Shore_Class": "mangrove"}}, {"type": "Feature", "geometry": {"type": "Point", "coordinates": [426497.28, 1459012.54]}, "properties": {"d": 140.0, "s": 19, "Shore_Class": "mangrove"}}, {"type": "Feature", "geometry": {"type": "Point", "coordinates": [426507.09, 1459010.58]}, "properties": {"d": 150.0, "s": 19, "Shore_Class": "mangrove"}}, {"type": "Feature", "geometry": {"type": "Point", "coordinates": [426139.29, 1458760.71]}, "properties": {"d": -100.0, "s": 20, "Shore_Class": "mangrove"}}, {"type": "Feature", "geometry": {"type": "Point", "coordinates": [426146.36, 1458753.64]}, "properties": {"d": -90.0, "s": 20, "Shore_Class": "mangrove"}}, {"type": "Feature", "geometry": {"type": "Point", "coordinates": [426153.43, 1458746.57]}, "properties": {"d": -80.0, "s": 20, "Shore_Class": "mangrove"}}, {"type": "Feature", "geometry": {"type": "Point", "coordinates": [426160.5, 1458739.5]}, "properties": {"d": -70.0, "s": 20, "Shore_Class": "mangrove"}}, {"type": "Feature", "geometry": {"type": "Point", "coordinates": [426167.57, 1458732.43]}, "properties": {"d": -60.0, "s": 20, "Shore_Class": "mangrove"}}, {"type": "Feature", "geometry": {"type": "Point", "coordinates": [426174.64, 1458725.36]}, "properties": {"d": -50.0, "s": 20, "Shore_Class": "mangrove"}}, {"type": "Feature", "geometry": {"type": "Point", "coordinates": [426181.72, 1458718.28]}, "properties": {"d": -40.0, "s": 20, "Shore_Class": "mangrove"}}, {"type": "Feature", "geometry": {"type": "Point", "coordinates": [426188.79, 1458711.21]}, "properties": {"d": -30.0, "s": 20, "Shore_Class": "mangrove"}}, {"type": "Feature", "geometry": {"type": "Point", "coordinates": [426195.86, 1458704.14]}, "properties": {"d": -20.0, "s": 20, "Shore_Class": "mangrove"}}, {"type": "Feature", "geometry": {"type": "Point", "coordinates": [426202.93, 1458697.07]}, "properties": {"d": -10.0, "s": 20, "Shore_Class": "mangrove"}}, {"type": "Feature", "geometry": {"type": "Point", "coordinates": [426210.0, 1458690.0]}, "properties": {"d": 0.0, "s": 20, "Shore_Class": "mangrove"}}, {"type": "Feature", "geometry": {"type": "Point", "coordinates": [426217.07, 1458682.93]}, "properties": {"d": 10.0, "s": 20, "Shore_Class": "mangrove"}}, {"type": "Feature", "geometry": {"type": "Point", "coordinates": [426224.14, 1458675.86]}, "properties": {"d": 20.0, "s": 20, "Shore_Class": "mangrove"}}, {"type": "Feature", "geometry": {"type": "Point", "coordinates": [426231.21, 1458668.79]}, "properties": {"d": 30.0, "s": 20, "Shore_Class": "mangrove"}}, {"type": "Feature", "geometry": {"type": "Point", "coordinates": [426238.28, 1458661.72]}, "properties": {"d": 40.0, "s": 20, "Shore_Class": "mangrove"}}, {"type": "Feature", "geometry": {"type": "Point", "coordinates": [426245.36, 1458654.64]}, "properties": {"d": 50.0, "s": 20, "Shore_Class": "mangrove"}}, {"type": "Feature", "geometry": {"type": "Point", "coordinates": [426252.43, 1458647.57]}, "properties": {"d": 60.0, "s": 20, "Shore_Class": "mangrove"}}, {"type": "Feature", "geometry": {"type": "Point", "coordinates": [426259.5, 1458640.5]}, "properties": {"d": 70.0, "s": 20, "Shore_Class": "mangrove"}}, {"type": "Feature", "geometry": {"type": "Point", "coordinates": [426266.57, 1458633.43]}, "properties": {"d": 80.0, "s": 20, "Shore_Class": "mangrove"}}, {"type": "Feature", "geometry": {"type": "Point", "coordinates": [426273.64, 1458626.36]}, "properties": {"d": 90.0, "s": 20, "Shore_Class": "mangrove"}}, {"type": "Feature", "geometry": {"type": "Point", "coordinates": [426280.71, 1458619.29]}, "properties": {"d": 100.0, "s": 20, "Shore_Class": "mangrove"}}, {"type": "Feature", "geometry": {"type": "Point", "coordinates": [426287.78, 1458612.22]}, "properties": {"d": 110.0, "s": 20, "Shore_Class": "mangrove"}}, {"type": "Feature", "geometry": {"type": "Point", "coordinates": [426294.85, 1458605.15]}, "properties": {"d": 120.0, "s": 20, "Shore_Class": "mangrove"}}, {"type": "Feature", "geometry": {"type": "Point", "coordinates": [426301.92, 1458598.08]}, "properties": {"d": 130.0, "s": 20, "Shore_Class": "mangrove"}}, {"type": "Feature", "geometry": {"type": "Point", "coordinates": [426309.0, 1458591.01]}, "properties": {"d": 140.0, "s": 20, "Shore_Class": "mangrove"}}, {"type": "Feature", "geometry": {"type": "Point", "coordinates": [426316.07, 1458583.93]}, "properties": {"d": 150.0, "s": 20, "Shore_Class": "mangrove"}}, {"type": "Feature", "geometry": {"type": "Point", "coordinates": [426059.29, 1458460.71]}, "properties": {"d": -100.0, "s": 21, "Shore_Class": "mangrove"}}, {"type": "Feature", "geometry": {"type": "Point", "coordinates": [426066.36, 1458453.64]}, "properties": {"d": -90.0, "s": 21, "Shore_Class": "mangrove"}}, {"type": "Feature", "geometry": {"type": "Point", "coordinates": [426073.43, 1458446.57]}, "properties": {"d": -80.0, "s": 21, "Shore_Class": "mangrove"}}, {"type": "Feature", "geometry": {"type": "Point", "coordinates": [426080.5, 1458439.5]}, "properties": {"d": -70.0, "s": 21, "Shore_Class": "mangrove"}}, {"type": "Feature", "geometry": {"type": "Point", "coordinates": [426087.57, 1458432.43]}, "properties": {"d": -60.0, "s": 21, "Shore_Class": "mangrove"}}, {"type": "Feature", "geometry": {"type": "Point", "coordinates": [426094.64, 1458425.36]}, "properties": {"d": -50.0, "s": 21, "Shore_Class": "mangrove"}}, {"type": "Feature", "geometry": {"type": "Point", "coordinates": [426101.72, 1458418.28]}, "properties": {"d": -40.0, "s": 21, "Shore_Class": "mangrove"}}, {"type": "Feature", "geometry": {"type": "Point", "coordinates": [426108.79, 1458411.21]}, "properties": {"d": -30.0, "s": 21, "Shore_Class": "mangrove"}}, {"type": "Feature", "geometry": {"type": "Point", "coordinates": [426115.86, 1458404.14]}, "properties": {"d": -20.0, "s": 21, "Shore_Class": "mangrove"}}, {"type": "Feature", "geometry": {"type": "Point", "coordinates": [426122.93, 1458397.07]}, "properties": {"d": -10.0, "s": 21, "Shore_Class": "mangrove"}}, {"type": "Feature", "geometry": {"type": "Point", "coordinates": [426130.0, 1458390.0]}, "properties": {"d": 0.0, "s": 21, "Shore_Class": "mangrove"}}, {"type": "Feature", "geometry": {"type": "Point", "coordinates": [426137.07, 1458382.93]}, "properties": {"d": 10.0, "s": 21, "Shore_Class": "mangrove"}}, {"type": "Feature", "geometry": {"type": "Point", "coordinates": [426144.14, 1458375.86]}, "properties": {"d": 20.0, "s": 21, "Shore_Class": "mangrove"}}, {"type": "Feature", "geometry": {"type": "Point", "coordinates": [426151.21, 1458368.79]}, "properties": {"d": 30.0, "s": 21, "Shore_Class": "mangrove"}}, {"type": "Feature", "geometry": {"type": "Point", "coordinates": [426158.28, 1458361.72]}, "properties": {"d": 40.0, "s": 21, "Shore_Class": "mangrove"}}, {"type": "Feature", "geometry": {"type": "Point", "coordinates": [426165.36, 1458354.64]}, "properties": {"d": 50.0, "s": 21, "Shore_Class": "mangrove"}}, {"type": "Feature", "geometry": {"type": "Point", "coordinates": [426172.43, 1458347.57]}, "properties": {"d": 60.0, "s": 21, "Shore_Class": "mangrove"}}, {"type": "Feature", "geometry": {"type": "Point", "coordinates": [426179.5, 1458340.5]}, "properties": {"d": 70.0, "s": 21, "Shore_Class": "mangrove"}}, {"type": "Feature", "geometry": {"type": "Point", "coordinates": [426186.57, 1458333.43]}, "properties": {"d": 80.0, "s": 21, "Shore_Class": "mangrove"}}, {"type": "Feature", "geometry": {"type": "Point", "coordinates": [426193.64, 1458326.36]}, "properties": {"d": 90.0, "s": 21, "Shore_Class": "mangrove"}}, {"type": "Feature", "geometry": {"type": "Point", "coordinates": [426200.71, 1458319.29]}, "properties": {"d": 100.0, "s": 21, "Shore_Class": "mangrove"}}, {"type": "Feature", "geometry": {"type": "Point", "coordinates": [426207.78, 1458312.22]}, "properties": {"d": 110.0, "s": 21, "Shore_Class": "mangrove"}}, {"type": "Feature", "geometry": {"type": "Point", "coordinates": [426214.85, 1458305.15]}, "properties": {"d": 120.0, "s": 21, "Shore_Class": "mangrove"}}, {"type": "Feature", "geometry": {"type": "Point", "coordinates": [426221.92, 1458298.08]}, "properties": {"d": 130.0, "s": 21, "Shore_Class": "mangrove"}}, {"type": "Feature", "geometry": {"type": "Point", "coordinates": [426228.99, 1458291.01]}, "properties": {"d": 140.0, "s": 21, "Shore_Class": "mangrove"}}, {"type": "Feature", "geometry": {"type": "Point", "coordinates": [426236.07, 1458283.93]}, "properties": {"d": 150.0, "s": 21, "Shore_Class": "mangrove"}}, {"type": "Feature", "geometry": {"type": "Point", "coordinates": [425949.29, 1458070.71]}, "properties": {"d": -100.0, "s": 22, "Shore_Class": "mangrove"}}, {"type": "Feature", "geometry": {"type": "Point", "coordinates": [425956.36, 1458063.64]}, "properties": {"d": -90.0, "s": 22, "Shore_Class": "mangrove"}}, {"type": "Feature", "geometry": {"type": "Point", "coordinates": [425963.43, 1458056.57]}, "properties": {"d": -80.0, "s": 22, "Shore_Class": "mangrove"}}, {"type": "Feature", "geometry": {"type": "Point", "coordinates": [425970.5, 1458049.5]}, "properties": {"d": -70.0, "s": 22, "Shore_Class": "mangrove"}}, {"type": "Feature", "geometry": {"type": "Point", "coordinates": [425977.57, 1458042.43]}, "properties": {"d": -60.0, "s": 22, "Shore_Class": "mangrove"}}, {"type": "Feature", "geometry": {"type": "Point", "coordinates": [425984.64, 1458035.36]}, "properties": {"d": -50.0, "s": 22, "Shore_Class": "mangrove"}}, {"type": "Feature", "geometry": {"type": "Point", "coordinates": [425991.72, 1458028.28]}, "properties": {"d": -40.0, "s": 22, "Shore_Class": "mangrove"}}, {"type": "Feature", "geometry": {"type": "Point", "coordinates": [425998.79, 1458021.21]}, "properties": {"d": -30.0, "s": 22, "Shore_Class": "mangrove"}}, {"type": "Feature", "geometry": {"type": "Point", "coordinates": [426005.86, 1458014.14]}, "properties": {"d": -20.0, "s": 22, "Shore_Class": "mangrove"}}, {"type": "Feature", "geometry": {"type": "Point", "coordinates": [426012.93, 1458007.07]}, "properties": {"d": -10.0, "s": 22, "Shore_Class": "mangrove"}}, {"type": "Feature", "geometry": {"type": "Point", "coordinates": [426020.0, 1458000.0]}, "properties": {"d": 0.0, "s": 22, "Shore_Class": "mangrove"}}, {"type": "Feature", "geometry": {"type": "Point", "coordinates": [426027.07, 1457992.93]}, "properties": {"d": 10.0, "s": 22, "Shore_Class": "mangrove"}}, {"type": "Feature", "geometry": {"type": "Point", "coordinates": [426034.14, 1457985.86]}, "properties": {"d": 20.0, "s": 22, "Shore_Class": "mangrove"}}, {"type": "Feature", "geometry": {"type": "Point", "coordinates": [426041.21, 1457978.79]}, "properties": {"d": 30.0, "s": 22, "Shore_Class": "mangrove"}}, {"type": "Feature", "geometry": {"type": "Point", "coordinates": [426048.28, 1457971.72]}, "properties": {"d": 40.0, "s": 22, "Shore_Class": "mangrove"}}, {"type": "Feature", "geometry": {"type": "Point", "coordinates": [426055.36, 1457964.64]}, "properties": {"d": 50.0, "s": 22, "Shore_Class": "mangrove"}}, {"type": "Feature", "geometry": {"type": "Point", "coordinates": [426062.43, 1457957.57]}, "properties": {"d": 60.0, "s": 22, "Shore_Class": "mangrove"}}, {"type": "Feature", "geometry": {"type": "Point", "coordinates": [426069.5, 1457950.5]}, "properties": {"d": 70.0, "s": 22, "Shore_Class": "mangrove"}}, {"type": "Feature", "geometry": {"type": "Point", "coordinates": [426076.57, 1457943.43]}, "properties": {"d": 80.0, "s": 22, "Shore_Class": "mangrove"}}, {"type": "Feature", "geometry": {"type": "Point", "coordinates": [426083.64, 1457936.36]}, "properties": {"d": 90.0, "s": 22, "Shore_Class": "mangrove"}}, {"type": "Feature", "geometry": {"type": "Point", "coordinates": [426090.71, 1457929.29]}, "properties": {"d": 100.0, "s": 22, "Shore_Class": "mangrove"}}, {"type": "Feature", "geometry": {"type": "Point", "coordinates": [426097.78, 1457922.22]}, "properties": {"d": 110.0, "s": 22, "Shore_Class": "mangrove"}}, {"type": "Feature", "geometry": {"type": "Point", "coordinates": [426104.85, 1457915.15]}, "properties": {"d": 120.0, "s": 22, "Shore_Class": "mangrove"}}, {"type": "Feature", "geometry": {"type": "Point", "coordinates": [426111.92, 1457908.08]}, "properties": {"d": 130.0, "s": 22, "Shore_Class": "mangrove"}}, {"type": "Feature", "geometry": {"type": "Point", "coordinates": [426118.99, 1457901.01]}, "properties": {"d": 140.0, "s": 22, "Shore_Class": "mangrove"}}, {"type": "Feature", "geometry": {"type": "Point", "coordinates": [426126.07, 1457893.93]}, "properties": {"d": 150.0, "s": 22, "Shore_Class": "mangrove"}}, {"type": "Feature", "geometry": {"type": "Point", "coordinates": [425899.29, 1457620.71]}, "properties": {"d": -100.0, "s": 23, "Shore_Class": "mangrove"}}, {"type": "Feature", "geometry": {"type": "Point", "coordinates": [425906.36, 1457613.64]}, "properties": {"d": -90.0, "s": 23, "Shore_Class": "mangrove"}}, {"type": "Feature", "geometry": {"type": "Point", "coordinates": [425913.43, 1457606.57]}, "properties": {"d": -80.0, "s": 23, "Shore_Class": "mangrove"}}, {"type": "Feature", "geometry": {"type": "Point", "coordinates": [425920.5, 1457599.5]}, "properties": {"d": -70.0, "s": 23, "Shore_Class": "mangrove"}}, {"type": "Feature", "geometry": {"type": "Point", "coordinates": [425927.57, 1457592.43]}, "properties": {"d": -60.0, "s": 23, "Shore_Class": "mangrove"}}, {"type": "Feature", "geometry": {"type": "Point", "coordinates": [425934.64, 1457585.36]}, "properties": {"d": -50.0, "s": 23, "Shore_Class": "mangrove"}}, {"type": "Feature", "geometry": {"type": "Point", "coordinates": [425941.72, 1457578.28]}, "properties": {"d": -40.0, "s": 23, "Shore_Class": "mangrove"}}, {"type": "Feature", "geometry": {"type": "Point", "coordinates": [425948.79, 1457571.21]}, "properties": {"d": -30.0, "s": 23, "Shore_Class": "mangrove"}}, {"type": "Feature", "geometry": {"type": "Point", "coordinates": [425955.86, 1457564.14]}, "properties": {"d": -20.0, "s": 23, "Shore_Class": "mangrove"}}, {"type": "Feature", "geometry": {"type": "Point", "coordinates": [425962.93, 1457557.07]}, "properties": {"d": -10.0, "s": 23, "Shore_Class": "mangrove"}}, {"type": "Feature", "geometry": {"type": "Point", "coordinates": [425970.0, 1457550.0]}, "properties": {"d": 0.0, "s": 23, "Shore_Class": "mangrove"}}, {"type": "Feature", "geometry": {"type": "Point", "coordinates": [425977.07, 1457542.93]}, "properties": {"d": 10.0, "s": 23, "Shore_Class": "mangrove"}}, {"type": "Feature", "geometry": {"type": "Point", "coordinates": [425984.14, 1457535.86]}, "properties": {"d": 20.0, "s": 23, "Shore_Class": "mangrove"}}, {"type": "Feature", "geometry": {"type": "Point", "coordinates": [425991.21, 1457528.79]}, "properties": {"d": 30.0, "s": 23, "Shore_Class": "mangrove"}}, {"type": "Feature", "geometry": {"type": "Point", "coordinates": [425998.28, 1457521.72]}, "properties": {"d": 40.0, "s": 23, "Shore_Class": "mangrove"}}, {"type": "Feature", "geometry": {"type": "Point", "coordinates": [426005.36, 1457514.64]}, "properties": {"d": 50.0, "s": 23, "Shore_Class": "mangrove"}}, {"type": "Feature", "geometry": {"type": "Point", "coordinates": [426012.43, 1457507.57]}, "properties": {"d": 60.0, "s": 23, "Shore_Class": "mangrove"}}, {"type": "Feature", "geometry": {"type": "Point", "coordinates": [426019.5, 1457500.5]}, "properties": {"d": 70.0, "s": 23, "Shore_Class": "mangrove"}}, {"type": "Feature", "geometry": {"type": "Point", "coordinates": [426026.57, 1457493.43]}, "properties": {"d": 80.0, "s": 23, "Shore_Class": "mangrove"}}, {"type": "Feature", "geometry": {"type": "Point", "coordinates": [426033.64, 1457486.36]}, "properties": {"d": 90.0, "s": 23, "Shore_Class": "mangrove"}}, {"type": "Feature", "geometry": {"type": "Point", "coordinates": [426040.71, 1457479.29]}, "properties": {"d": 100.0, "s": 23, "Shore_Class": "mangrove"}}, {"type": "Feature", "geometry": {"type": "Point", "coordinates": [426047.78, 1457472.22]}, "properties": {"d": 110.0, "s": 23, "Shore_Class": "mangrove"}}, {"type": "Feature", "geometry": {"type": "Point", "coordinates": [426054.85, 1457465.15]}, "properties": {"d": 120.0, "s": 23, "Shore_Class": "mangrove"}}, {"type": "Feature", "geometry": {"type": "Point", "coordinates": [426061.92, 1457458.08]}, "properties": {"d": 130.0, "s": 23, "Shore_Class": "mangrove"}}, {"type": "Feature", "geometry": {"type": "Point", "coordinates": [426068.99, 1457451.01]}, "properties": {"d": 140.0, "s": 23, "Shore_Class": "mangrove"}}, {"type": "Feature", "geometry": {"type": "Point", "coordinates": [426076.07, 1457443.93]}, "properties": {"d": 150.0, "s": 23, "Shore_Class": "mangrove"}}, {"type": "Feature", "geometry": {"type": "Point", "coordinates": [425789.29, 1457350.71]}, "properties": {"d": -100.0, "s": 24, "Shore_Class": "mangrove"}}, {"type": "Feature", "geometry": {"type": "Point", "coordinates": [425796.36, 1457343.64]}, "properties": {"d": -90.0, "s": 24, "Shore_Class": "mangrove"}}, {"type": "Feature", "geometry": {"type": "Point", "coordinates": [425803.43, 1457336.57]}, "properties": {"d": -80.0, "s": 24, "Shore_Class": "mangrove"}}, {"type": "Feature", "geometry": {"type": "Point", "coordinates": [425810.5, 1457329.5]}, "properties": {"d": -70.0, "s": 24, "Shore_Class": "mangrove"}}, {"type": "Feature", "geometry": {"type": "Point", "coordinates": [425817.57, 1457322.43]}, "properties": {"d": -60.0, "s": 24, "Shore_Class": "mangrove"}}, {"type": "Feature", "geometry": {"type": "Point", "coordinates": [425824.64, 1457315.36]}, "properties": {"d": -50.0, "s": 24, "Shore_Class": "mangrove"}}, {"type": "Feature", "geometry": {"type": "Point", "coordinates": [425831.72, 1457308.28]}, "properties": {"d": -40.0, "s": 24, "Shore_Class": "mangrove"}}, {"type": "Feature", "geometry": {"type": "Point", "coordinates": [425838.79, 1457301.21]}, "properties": {"d": -30.0, "s": 24, "Shore_Class": "mangrove"}}, {"type": "Feature", "geometry": {"type": "Point", "coordinates": [425845.86, 1457294.14]}, "properties": {"d": -20.0, "s": 24, "Shore_Class": "mangrove"}}, {"type": "Feature", "geometry": {"type": "Point", "coordinates": [425852.93, 1457287.07]}, "properties": {"d": -10.0, "s": 24, "Shore_Class": "mangrove"}}, {"type": "Feature", "geometry": {"type": "Point", "coordinates": [425860.0, 1457280.0]}, "properties": {"d": 0.0, "s": 24, "Shore_Class": "mangrove"}}, {"type": "Feature", "geometry": {"type": "Point", "coordinates": [425867.07, 1457272.93]}, "properties": {"d": 10.0, "s": 24, "Shore_Class": "mangrove"}}, {"type": "Feature", "geometry": {"type": "Point", "coordinates": [425874.14, 1457265.86]}, "properties": {"d": 20.0, "s": 24, "Shore_Class": "mangrove"}}, {"type": "Feature", "geometry": {"type": "Point", "coordinates": [425881.21, 1457258.79]}, "properties": {"d": 30.0, "s": 24, "Shore_Class": "mangrove"}}, {"type": "Feature", "geometry": {"type": "Point", "coordinates": [425888.28, 1457251.72]}, "properties": {"d": 40.0, "s": 24, "Shore_Class": "mangrove"}}, {"type": "Feature", "geometry": {"type": "Point", "coordinates": [425895.36, 1457244.64]}, "properties": {"d": 50.0, "s": 24, "Shore_Class": "mangrove"}}, {"type": "Feature", "geometry": {"type": "Point", "coordinates": [425902.43, 1457237.57]}, "properties": {"d": 60.0, "s": 24, "Shore_Class": "mangrove"}}, {"type": "Feature", "geometry": {"type": "Point", "coordinates": [425909.5, 1457230.5]}, "properties": {"d": 70.0, "s": 24, "Shore_Class": "mangrove"}}, {"type": "Feature", "geometry": {"type": "Point", "coordinates": [425916.57, 1457223.43]}, "properties": {"d": 80.0, "s": 24, "Shore_Class": "mangrove"}}, {"type": "Feature", "geometry": {"type": "Point", "coordinates": [425923.64, 1457216.36]}, "properties": {"d": 90.0, "s": 24, "Shore_Class": "mangrove"}}, {"type": "Feature", "geometry": {"type": "Point", "coordinates": [425930.71, 1457209.29]}, "properties": {"d": 100.0, "s": 24, "Shore_Class": "mangrove"}}, {"type": "Feature", "geometry": {"type": "Point", "coordinates": [425937.78, 1457202.22]}, "properties": {"d": 110.0, "s": 24, "Shore_Class": "mangrove"}}, {"type": "Feature", "geometry": {"type": "Point", "coordinates": [425944.85, 1457195.15]}, "properties": {"d": 120.0, "s": 24, "Shore_Class": "mangrove"}}, {"type": "Feature", "geometry": {"type": "Point", "coordinates": [425951.92, 1457188.08]}, "properties": {"d": 130.0, "s": 24, "Shore_Class": "mangrove"}}, {"type": "Feature", "geometry": {"type": "Point", "coordinates": [425958.99, 1457181.01]}, "properties": {"d": 140.0, "s": 24, "Shore_Class": "mangrove"}}, {"type": "Feature", "geometry": {"type": "Point", "coordinates": [425966.07, 1457173.93]}, "properties": {"d": 150.0, "s": 24, "Shore_Class": "mangrove"}}, {"type": "Feature", "geometry": {"type": "Point", "coordinates": [425479.29, 1456660.71]}, "properties": {"d": -100.0, "s": 26, "Shore_Class": "mangrove"}}, {"type": "Feature", "geometry": {"type": "Point", "coordinates": [425486.36, 1456653.64]}, "properties": {"d": -90.0, "s": 26, "Shore_Class": "mangrove"}}, {"type": "Feature", "geometry": {"type": "Point", "coordinates": [425493.43, 1456646.57]}, "properties": {"d": -80.0, "s": 26, "Shore_Class": "mangrove"}}, {"type": "Feature", "geometry": {"type": "Point", "coordinates": [425500.5, 1456639.5]}, "properties": {"d": -70.0, "s": 26, "Shore_Class": "mangrove"}}, {"type": "Feature", "geometry": {"type": "Point", "coordinates": [425507.57, 1456632.43]}, "properties": {"d": -60.0, "s": 26, "Shore_Class": "mangrove"}}, {"type": "Feature", "geometry": {"type": "Point", "coordinates": [425514.64, 1456625.36]}, "properties": {"d": -50.0, "s": 26, "Shore_Class": "mangrove"}}, {"type": "Feature", "geometry": {"type": "Point", "coordinates": [425521.72, 1456618.28]}, "properties": {"d": -40.0, "s": 26, "Shore_Class": "mangrove"}}, {"type": "Feature", "geometry": {"type": "Point", "coordinates": [425528.79, 1456611.21]}, "properties": {"d": -30.0, "s": 26, "Shore_Class": "mangrove"}}, {"type": "Feature", "geometry": {"type": "Point", "coordinates": [425535.86, 1456604.14]}, "properties": {"d": -20.0, "s": 26, "Shore_Class": "mangrove"}}, {"type": "Feature", "geometry": {"type": "Point", "coordinates": [425542.93, 1456597.07]}, "properties": {"d": -10.0, "s": 26, "Shore_Class": "mangrove"}}, {"type": "Feature", "geometry": {"type": "Point", "coordinates": [425550.0, 1456590.0]}, "properties": {"d": 0.0, "s": 26, "Shore_Class": "mangrove"}}, {"type": "Feature", "geometry": {"type": "Point", "coordinates": [425557.07, 1456582.93]}, "properties": {"d": 10.0, "s": 26, "Shore_Class": "mangrove"}}, {"type": "Feature", "geometry": {"type": "Point", "coordinates": [425564.14, 1456575.86]}, "properties": {"d": 20.0, "s": 26, "Shore_Class": "mangrove"}}, {"type": "Feature", "geometry": {"type": "Point", "coordinates": [425571.21, 1456568.79]}, "properties": {"d": 30.0, "s": 26, "Shore_Class": "mangrove"}}, {"type": "Feature", "geometry": {"type": "Point", "coordinates": [425578.28, 1456561.72]}, "properties": {"d": 40.0, "s": 26, "Shore_Class": "mangrove"}}, {"type": "Feature", "geometry": {"type": "Point", "coordinates": [425585.36, 1456554.64]}, "properties": {"d": 50.0, "s": 26, "Shore_Class": "mangrove"}}, {"type": "Feature", "geometry": {"type": "Point", "coordinates": [425592.43, 1456547.57]}, "properties": {"d": 60.0, "s": 26, "Shore_Class": "mangrove"}}, {"type": "Feature", "geometry": {"type": "Point", "coordinates": [425599.5, 1456540.5]}, "properties": {"d": 70.0, "s": 26, "Shore_Class": "mangrove"}}, {"type": "Feature", "geometry": {"type": "Point", "coordinates": [425606.57, 1456533.43]}, "properties": {"d": 80.0, "s": 26, "Shore_Class": "mangrove"}}, {"type": "Feature", "geometry": {"type": "Point", "coordinates": [425613.64, 1456526.36]}, "properties": {"d": 90.0, "s": 26, "Shore_Class": "mangrove"}}, {"type": "Feature", "geometry": {"type": "Point", "coordinates": [425620.71, 1456519.29]}, "properties": {"d": 100.0, "s": 26, "Shore_Class": "mangrove"}}, {"type": "Feature", "geometry": {"type": "Point", "coordinates": [425627.78, 1456512.22]}, "properties": {"d": 110.0, "s": 26, "Shore_Class": "mangrove"}}, {"type": "Feature", "geometry": {"type": "Point", "coordinates": [425634.85, 1456505.15]}, "properties": {"d": 120.0, "s": 26, "Shore_Class": "mangrove"}}, {"type": "Feature", "geometry": {"type": "Point", "coordinates": [425641.92, 1456498.08]}, "properties": {"d": 130.0, "s": 26, "Shore_Class": "mangrove"}}, {"type": "Feature", "geometry": {"type": "Point", "coordinates": [425648.99, 1456491.01]}, "properties": {"d": 140.0, "s": 26, "Shore_Class": "mangrove"}}, {"type": "Feature", "geometry": {"type": "Point", "coordinates": [425656.07, 1456483.93]}, "properties": {"d": 150.0, "s": 26, "Shore_Class": "mangrove"}}, {"type": "Feature", "geometry": {"type": "Point", "coordinates": [428179.29, 1466740.71]}, "properties": {"d": -100.0, "s": 77, "Shore_Class": "mangrove"}}, {"type": "Feature", "geometry": {"type": "Point", "coordinates": [428186.36, 1466733.64]}, "properties": {"d": -90.0, "s": 77, "Shore_Class": "mangrove"}}, {"type": "Feature", "geometry": {"type": "Point", "coordinates": [428193.43, 1466726.57]}, "properties": {"d": -80.0, "s": 77, "Shore_Class": "mangrove"}}, {"type": "Feature", "geometry": {"type": "Point", "coordinates": [428200.5, 1466719.5]}, "properties": {"d": -70.0, "s": 77, "Shore_Class": "mangrove"}}, {"type": "Feature", "geometry": {"type": "Point", "coordinates": [428207.57, 1466712.43]}, "properties": {"d": -60.0, "s": 77, "Shore_Class": "mangrove"}}, {"type": "Feature", "geometry": {"type": "Point", "coordinates": [428214.64, 1466705.36]}, "properties": {"d": -50.0, "s": 77, "Shore_Class": "mangrove"}}, {"type": "Feature", "geometry": {"type": "Point", "coordinates": [428221.72, 1466698.28]}, "properties": {"d": -40.0, "s": 77, "Shore_Class": "mangrove"}}, {"type": "Feature", "geometry": {"type": "Point", "coordinates": [428228.79, 1466691.21]}, "properties": {"d": -30.0, "s": 77, "Shore_Class": "mangrove"}}, {"type": "Feature", "geometry": {"type": "Point", "coordinates": [428235.86, 1466684.14]}, "properties": {"d": -20.0, "s": 77, "Shore_Class": "mangrove"}}, {"type": "Feature", "geometry": {"type": "Point", "coordinates": [428242.93, 1466677.07]}, "properties": {"d": -10.0, "s": 77, "Shore_Class": "mangrove"}}, {"type": "Feature", "geometry": {"type": "Point", "coordinates": [428250.0, 1466670.0]}, "properties": {"d": 0.0, "s": 77, "Shore_Class": "mangrove"}}, {"type": "Feature", "geometry": {"type": "Point", "coordinates": [428257.07, 1466662.93]}, "properties": {"d": 10.0, "s": 77, "Shore_Class": "mangrove"}}, {"type": "Feature", "geometry": {"type": "Point", "coordinates": [428264.14, 1466655.86]}, "properties": {"d": 20.0, "s": 77, "Shore_Class": "mangrove"}}, {"type": "Feature", "geometry": {"type": "Point", "coordinates": [428271.21, 1466648.79]}, "properties": {"d": 30.0, "s": 77, "Shore_Class": "mangrove"}}, {"type": "Feature", "geometry": {"type": "Point", "coordinates": [428278.28, 1466641.72]}, "properties": {"d": 40.0, "s": 77, "Shore_Class": "mangrove"}}, {"type": "Feature", "geometry": {"type": "Point", "coordinates": [428285.36, 1466634.64]}, "properties": {"d": 50.0, "s": 77, "Shore_Class": "mangrove"}}, {"type": "Feature", "geometry": {"type": "Point", "coordinates": [428292.43, 1466627.57]}, "properties": {"d": 60.0, "s": 77, "Shore_Class": "mangrove"}}, {"type": "Feature", "geometry": {"type": "Point", "coordinates": [428299.5, 1466620.5]}, "properties": {"d": 70.0, "s": 77, "Shore_Class": "mangrove"}}, {"type": "Feature", "geometry": {"type": "Point", "coordinates": [428306.57, 1466613.43]}, "properties": {"d": 80.0, "s": 77, "Shore_Class": "mangrove"}}, {"type": "Feature", "geometry": {"type": "Point", "coordinates": [428313.64, 1466606.36]}, "properties": {"d": 90.0, "s": 77, "Shore_Class": "mangrove"}}, {"type": "Feature", "geometry": {"type": "Point", "coordinates": [428320.71, 1466599.29]}, "properties": {"d": 100.0, "s": 77, "Shore_Class": "mangrove"}}, {"type": "Feature", "geometry": {"type": "Point", "coordinates": [428327.78, 1466592.22]}, "properties": {"d": 110.0, "s": 77, "Shore_Class": "mangrove"}}, {"type": "Feature", "geometry": {"type": "Point", "coordinates": [428334.85, 1466585.15]}, "properties": {"d": 120.0, "s": 77, "Shore_Class": "mangrove"}}, {"type": "Feature", "geometry": {"type": "Point", "coordinates": [428341.92, 1466578.08]}, "properties": {"d": 130.0, "s": 77, "Shore_Class": "mangrove"}}, {"type": "Feature", "geometry": {"type": "Point", "coordinates": [428348.99, 1466571.0]}, "properties": {"d": 140.0, "s": 77, "Shore_Class": "mangrove"}}, {"type": "Feature", "geometry": {"type": "Point", "coordinates": [428356.07, 1466563.93]}, "properties": {"d": 150.0, "s": 77, "Shore_Class": "mangrove"}}]}