{"type": "FeatureCollection", "crs": {"type": "name", "properties": {"name": "EPSG:32644"}}, "features": [{"type": "Feature", "geometry": {"type": "LineString", "coordinates": [[324960.0, 1142880.0], [372284.25, 1186865.75], [374415.86, 1180754.14], [369950.19, 1177011.96], [374860.0, 1172610.0], [375240.0, 1166420.0], [375582.57, 1160735.81], [375764.64, 1154465.36], [375720.0, 1150040.0], [376869.5, 1144759.5], [377564.72, 1138952.36], [373480.71, 1136269.29], [367170.0, 1135890.0], [363334.9, 1136359.02], [365295.86, 1137494.14], [364730.0, 1139100.0], [363600.0, 1140520.0], [358450.0, 1141540.0], [356820.0, 1140525.0], [355846.07, 1138903.93], [360560.0, 1136715.0], [357538.94, 1136477.89], [351890.0, 1137420.0], [345780.0, 1138460.0], [339570.0, 1139470.0], [341313.43, 1140163.43], [341565.36, 1140635.36], [345346.07, 1143016.07], [340020.0, 1143880.0], [338250.0, 1141180.0], [336208.08, 1142041.92], [334060.0, 1143120.0], [332870.0, 1144290.0], [334104.5, 1140832.52], [337110.0, 1139980.0], [330532.93, 1140517.07], [325126.07, 1141996.07], [371046.97, 1179666.97], [373860.0, 1153330.0], [372812.93, 1154467.07], [373890.0, 1153710.0], [331170.0, 1146000.0], [334736.36, 1144466.36], [337076.36, 1147323.64], [339105.88, 1147139.42], [342445.0, 1153830.11], [342865.0, 1147370.0], [346750.58, 1144022.91], [350805.0, 1172309.81], [366728.79, 1144871.21], [369403.93, 1167513.93], [370440.0, 1163940.0], [370642.57, 1142812.3], [371810.0, 1160745.0], [325286.36, 1187043.64], [327370.0, 1179690.0], [329992.36, 1167878.82], [331992.11, 1168301.06], [332293.93, 1145146.07], [333710.0, 1145490.0], [334400.0, 1159539.57], [334780.0, 1145180.0], [335505.86, 1149825.86], [336070.97, 1150020.19], [337120.0, 1153970.0], [338552.11, 1163754.22], [341260.0, 1153470.56], [342130.0, 1147590.2], [343670.01, 1174730.32], [344436.84, 1159869.49], [345780.0, 1144020.0], [346160.0, 1139200.0], [346920.0, 1146260.0], [347372.91, 1142810.58], [349068.42, 1149115.26], [350190.0, 1156320.0], [352660.0, 1147450.0], [354630.0, 1187820.0], [356196.41, 1150862.14], [357400.0, 1187790.47], [364105.69, 1176378.45], [364523.03, 1159086.97], [365821.92, 1161028.08], [367235.0, 1159910.0], [367880.0, 1171030.0], [368660.0, 1142159.64], [369270.0, 1148405.0], [369570.0, 1147950.0], [370486.07, 1165036.07], [371270.0, 1169970.0], [371685.28, 1160222.36], [371866.07, 1175503.93], [372358.08, 1185898.08], [373799.19, 1152321.61], [375260.0, 1144949.96], [366406.07, 1164586.07], [363703.93, 1162476.07], [365325.78, 1160718.45], [371020.0, 1159930.0], [369439.29, 1163320.71], [368499.5, 1163299.5], [370306.07, 1164433.93], [367687.43, 1164937.7], [367522.92, 1163116.46], [369752.57, 1163857.7], [370932.14, 1143018.43], [372826.07, 1142653.93], [372664.9, 1143490.98], [364574.72, 1145107.64], [360426.57, 1143513.43], [365200.93, 1143271.86], [366320.0, 1143630.0], [364515.86, 1143354.14], [348853.93, 1143506.07], [350393.03, 1142753.03], [350130.0, 1145290.0], [348890.0, 1144380.0], [351092.91, 1140830.58], [351748.99, 1140111.01], [352545.0, 1142570.0], [353659.42, 1142582.91], [351946.07, 1144386.07], [350730.0, 1147830.0], [351080.0, 1154780.0], [353760.0, 1154970.0], [352460.0, 1155065.0], [349533.93, 1155346.07], [350377.07, 1148017.07], [335130.0, 1146735.0], [336080.0, 1146450.0], [372160.0, 1184940.0], [369383.93, 1168513.93], [369116.07, 1168036.07], [357056.26, 1142647.25], [355180.61, 1144699.39], [354030.5, 1143289.5], [355237.43, 1143907.7], [343370.0, 1145960.0], [332975.21, 1155217.75], [371713.93, 1161526.07], [340306.07, 1146826.07], [372080.0, 1140350.0], [372017.08, 1141574.16], [368430.0, 1138980.0], [364705.0, 1160120.0], [369100.0, 1170090.0], [369060.0, 1143770.0], [369500.0, 1143150.0], [370898.79, 1138881.21], [369925.81, 1143467.43], [327940.0, 1183100.0], [372976.07, 1155176.07], [372189.49, 1158436.84], [371362.93, 1181977.07], [367549.29, 1143409.29], [371786.57, 1183586.57], [365415.0, 1160580.0], [375240.0, 1150240.0], [371960.0, 1176360.0], [331237.7, 1144382.57], [331547.65, 1144529.66], [374630.0, 1143570.0], [336747.91, 1147116.28], [360610.0, 1149960.0], [332972.92, 1145954.16], [370040.0, 1144020.0], [355950.0, 1143630.0], [367343.93, 1144303.93], [371270.71, 1140439.29], [368633.93, 1137643.93], [368056.71, 1142326.58], [362894.04, 1160654.04], [368496.33, 1183313.17], [371242.93, 1141357.07], [335520.0, 1145790.0], [359382.93, 1153927.07], [371605.0, 1165760.0], [370530.0, 1143890.0], [364386.08, 1160650.39], [375810.0, 1143230.0], [332280.0, 1145990.0], [349873.93, 1142443.93], [371682.11, 1164948.94]]}, "properties": {"n_points": 183}}]}