{"type": "FeatureCollection", "crs": {"type": "name", "properties": {"name": "EPSG:32644"}}, "features": [{"type": "Feature", "geometry": {"type": "LineString", "coordinates": [[374415.86, 1180754.14], [374860.0, 1172610.0], [375230.0, 1166420.0], [375582.57, 1160735.81], [375736.36, 1154493.64], [375560.0, 1150040.0], [377573.67, 1138956.83], [373480.71, 1136269.29], [367170.0, 1135860.0], [365246.36, 1137543.64], [364730.0, 1139100.0], [358450.0, 1141560.0], [356820.0, 1140600.0], [355846.07, 1138903.93], [351890.0, 1137420.0], [345780.0, 1138460.0], [339570.0, 1139460.0], [341313.43, 1140163.43], [341565.36, 1140635.36], [345346.07, 1143016.07], [340020.0, 1143880.0], [338250.0, 1141180.0], [336208.08, 1142041.92], [334060.0, 1143120.0], [332870.0, 1144290.0], [334102.54, 1140822.72], [337110.0, 1139980.0], [330532.93, 1140517.07], [325126.07, 1141996.07], [373860.0, 1153330.0], [372812.93, 1154467.07], [373890.0, 1153710.0], [331170.0, 1146000.0], [337076.36, 1147323.64], [339092.16, 1147070.78], [346750.58, 1144022.91], [366792.43, 1144807.57], [369403.93, 1167513.93], [370440.0, 1163940.0], [370642.57, 1142812.3], [332293.93, 1145146.07], [333710.0, 1145490.0], [336930.0, 1153970.0], [346160.0, 1139200.0], [346844.11, 1146285.3], [347372.91, 1142810.58], [365821.92, 1161028.08], [367880.0, 1171030.0], [369270.0, 1148400.0], [370486.07, 1165036.07], [371270.0, 1169880.0], [371685.28, 1160222.36], [371866.07, 1175503.93], [372358.08, 1185898.08], [373799.19, 1152321.61], [366406.07, 1164586.07], [363703.93, 1162476.07], [369439.29, 1163320.71], [370306.07, 1164433.93], [367687.43, 1164937.7], [369752.57, 1163857.7], [370932.14, 1143018.43], [372826.07, 1142653.93], [366320.0, 1143630.0], [348853.93, 1143506.07], [350067.39, 1145321.3], [348810.0, 1144380.0], [351748.99, 1140111.01], [352580.0, 1142570.0], [353659.42, 1142582.91], [350715.86, 1147815.86], [351080.0, 1154780.0], [353760.0, 1154970.0], [352460.0, 1154990.0], [350377.07, 1148017.07], [372160.0, 1184940.0], [369383.93, 1168513.93], [369116.07, 1168036.07], [343370.0, 1145960.0], [371713.93, 1161526.07], [340306.07, 1146826.07], [372080.0, 1140350.0], [371994.72, 1141529.44], [368430.0, 1138980.0], [369100.0, 1170090.0], [369060.0, 1143760.0], [369500.0, 1143150.0], [372976.07, 1155176.07], [372189.49, 1158436.84], [375247.07, 1150232.93], [371960.0, 1176360.0], [331237.7, 1144382.57], [336749.49, 1147111.54], [332972.92, 1145954.16], [367343.93, 1144303.93], [371306.07, 1140403.93], [368633.93, 1137643.93], [368054.47, 1142331.06], [371242.93, 1141357.07], [335520.0, 1145790.0], [364409.61, 1160768.06], [332280.0, 1145990.0], [349873.93, 1142443.93], [371682.11, 1164948.94]]}, "properties": {"n_points": 104}}]}