{"type": "FeatureCollection", "crs": {"type": "name", "properties": {"name": "EPSG:32644"}}, "features": [{"type": "Feature", "geometry": {"type": "LineString", "coordinates": [[324960.0, 1142880.0], [372287.78, 1186862.22], [374422.93, 1180747.07], [369950.19, 1177011.96], [374874.14, 1172624.14], [375270.0, 1166420.0], [375582.57, 1160735.81], [375792.93, 1154437.07], [375720.0, 1150040.0], [377528.94, 1138934.47], [367170.0, 1135920.0], [363330.0, 1136360.0], [365295.86, 1137494.14], [364600.0, 1139100.0], [363600.0, 1140440.0], [358450.0, 1141540.0], [356820.0, 1140450.0], [355732.93, 1139017.07], [360560.0, 1136790.0], [357521.06, 1136442.11], [351890.0, 1137420.0], [345780.0, 1138400.0], [339570.0, 1139470.0], [341377.07, 1140227.07], [341530.0, 1140600.0], [345254.14, 1142924.14], [340020.0, 1143880.0], [338250.0, 1141180.0], [336292.93, 1141957.07], [334060.0, 1142970.0], [332870.0, 1144130.0], [334133.92, 1140979.61], [337110.0, 1139940.0], [330561.21, 1140488.79], [325062.43, 1141932.43], [371092.93, 1179712.93], [373910.0, 1153330.0], [372812.93, 1154467.07], [373890.0, 1153620.0], [331320.0, 1146000.0], [334778.79, 1144508.79], [337062.22, 1147337.78], [339105.88, 1147139.42], [342450.0, 1153830.0], [342800.0, 1147370.0], [346752.54, 1144032.72], [350820.0, 1172309.72], [366693.43, 1144906.57], [369403.93, 1167513.93], [370440.0, 1163780.0], [370674.19, 1142717.43], [371810.0, 1160820.0], [325286.36, 1187043.64], [327370.0, 1179690.0], [329987.89, 1167881.06], [331992.11, 1168301.06], [332407.07, 1145032.93], [333610.0, 1145490.0], [334400.0, 1159539.57], [334850.0, 1145180.0], [335505.86, 1149825.86], [336070.97, 1150020.19], [337140.0, 1153970.0], [338552.11, 1163754.22], [341260.0, 1153470.56], [342130.0, 1147590.2], [344446.32, 1159841.03], [346160.0, 1139310.0], [346920.0, 1146260.0], [349044.7, 1149044.11], [352690.0, 1147450.0], [354630.0, 1187820.0], [364519.5, 1159090.5], [365821.92, 1161028.08], [367150.0, 1159910.0], [367970.0, 1171030.0], [368660.0, 1142159.64], [369270.0, 1148410.0], [369580.0, 1147950.0], [370387.07, 1164937.07], [371270.0, 1169970.0], [371730.0, 1160200.0], [371866.07, 1175503.93], [372414.64, 1185954.64], [373763.42, 1152393.17], [375340.0, 1144949.65], [366292.93, 1164472.93], [363802.93, 1162377.07], [365294.47, 1160781.06], [371020.0, 1159930.0], [369502.93, 1163257.07], [368442.93, 1163242.93], [370214.14, 1164525.86], [367636.84, 1165089.49], [367590.0, 1163150.0], [369800.0, 1164000.0], [370941.94, 1143020.39], [372769.5, 1142710.5], [372669.81, 1143491.96], [360377.07, 1143562.93], [365238.94, 1143347.89], [348853.93, 1143506.07], [350340.0, 1142700.0], [350130.0, 1145290.0], [348970.0, 1144380.0], [351092.91, 1140830.58], [351642.93, 1140217.07], [352510.0, 1142570.0], [353659.42, 1142582.91], [351946.07, 1144386.07], [350730.0, 1147830.0], [351080.0, 1154780.0], [353760.0, 1154970.0], [352460.0, 1155140.0], [350377.07, 1148017.07], [335130.0, 1146780.0], [336080.0, 1146450.0], [372240.0, 1184940.0], [369497.07, 1168627.07], [369002.93, 1167922.93], [357139.61, 1142663.92], [355162.93, 1144717.07], [354087.07, 1143232.93], [355237.43, 1143907.7], [343380.0, 1145960.0], [332959.21, 1155236.95], [371728.08, 1161511.92], [340185.86, 1146705.86], [372080.0, 1140450.0], [372017.08, 1141574.16], [368590.0, 1138980.0], [364640.0, 1160120.0], [369100.0, 1169940.0], [369060.0, 1143770.0], [369500.0, 1142980.0], [370920.0, 1138860.0], [369910.0, 1143420.0], [327940.0, 1183100.0], [372877.07, 1155077.07], [372189.49, 1158436.84], [371370.0, 1181970.0], [367584.64, 1143444.64], [371800.71, 1183600.71], [365490.0, 1160580.0], [375240.0, 1150240.0], [371960.0, 1176200.0], [331237.7, 1144382.57], [331547.65, 1144529.66], [374630.0, 1143570.0], [360610.0, 1149960.0], [333044.47, 1145811.06], [370040.0, 1144020.0], [367457.07, 1144417.07], [371235.36, 1140474.64], [368747.07, 1137757.07], [368058.94, 1142322.11], [362954.14, 1160714.14], [368541.06, 1183335.53], [371242.93, 1141357.07], [335520.0, 1145650.0], [359382.93, 1153927.07], [371600.0, 1165760.0], [370530.0, 1143890.0], [364386.08, 1160650.39], [375810.0, 1143210.0], [332330.0, 1145990.0], [349916.36, 1142486.36], [371682.11, 1164948.94]]}, "properties": {"n_points": 168}}]}