{"type": "FeatureCollection", "crs": {"type": "name", "properties": {"name": "EPSG:32644"}}, "features": [{"type": "Feature", "geometry": {"type": "LineString", "coordinates": [[324960.0, 1142880.0], [372280.71, 1186869.29], [374415.86, 1180754.14], [374845.86, 1172595.86], [375240.0, 1166420.0], [375582.57, 1160735.81], [375764.64, 1154465.36], [375720.0, 1150040.0], [376869.5, 1144759.5], [377564.72, 1138952.36], [373480.71, 1136269.29], [363339.81, 1136358.04], [365416.07, 1137373.93], [364740.0, 1139100.0], [363600.0, 1140600.0], [358450.0, 1141510.0], [355846.07, 1138903.93], [360560.0, 1136640.0], [357556.83, 1136513.67], [351890.0, 1137560.0], [345780.0, 1138460.0], [339570.0, 1139470.0], [341306.36, 1140156.36], [341636.07, 1140706.07], [345346.07, 1143016.07], [340020.0, 1143880.0], [338397.09, 1141209.42], [336193.93, 1142056.07], [334060.0, 1143120.0], [332870.0, 1144290.0], [334104.5, 1140832.52], [337110.0, 1140000.0], [330511.72, 1140538.28], [325126.07, 1141996.07], [371001.01, 1179621.01], [373860.0, 1153330.0], [372798.79, 1154481.21], [373890.0, 1153740.0], [331170.0, 1146000.0], [334693.93, 1144423.93], [337076.36, 1147323.64], [339107.84, 1147149.22], [342440.0, 1153830.21], [342930.0, 1147370.0], [346750.58, 1144022.91], [350790.0, 1172309.89], [366728.79, 1144871.21], [369403.93, 1167513.93], [370440.0, 1163940.0], [370642.57, 1142812.3], [371810.0, 1160670.0], [327370.0, 1179690.0], [329996.83, 1167876.58], [331992.11, 1168301.06], [332293.93, 1145146.07], [333730.0, 1145490.0], [334710.0, 1145180.0], [337120.0, 1153970.0], [338552.11, 1163754.22], [343670.01, 1174730.32], [344427.35, 1159897.95], [345780.0, 1144020.0], [346160.0, 1139200.0], [347062.3, 1146212.57], [347372.91, 1142810.58], [349092.14, 1149186.41], [350190.0, 1156320.0], [352630.0, 1147450.0], [356196.41, 1150862.14], [357400.0, 1187790.47], [364105.69, 1176378.45], [364526.57, 1159083.43], [365828.99, 1161021.01], [367320.0, 1159910.0], [367830.0, 1171030.0], [369560.0, 1147950.0], [370486.07, 1165036.07], [371270.0, 1169970.0], [371595.84, 1160267.08], [371866.07, 1175503.93], [372343.93, 1185883.93], [373799.19, 1152321.61], [375180.0, 1144950.27], [366406.07, 1164586.07], [363703.93, 1162476.07], [365357.08, 1160655.84], [371020.0, 1159930.0], [369403.93, 1163356.07], [368556.07, 1163356.07], [370306.07, 1164433.93], [367687.43, 1164937.7], [367455.84, 1163082.92], [369752.57, 1163857.7], [370892.91, 1143010.58], [372826.07, 1142653.93], [372660.0, 1143490.0], [364574.72, 1145107.64], [360476.07, 1143463.93], [365162.92, 1143195.84], [366320.0, 1143630.0], [364515.86, 1143354.14], [348853.93, 1143506.07], [350446.07, 1142806.07], [350264.16, 1145222.92], [351756.07, 1140103.93], [353659.42, 1142582.91], [350836.07, 1147936.07], [349533.93, 1155346.07], [350377.07, 1148017.07], [335130.0, 1146690.0], [372150.0, 1184940.0], [369383.93, 1168513.93], [369116.07, 1168036.07], [356972.91, 1142630.58], [355198.28, 1144681.72], [353973.93, 1143346.07], [355237.43, 1143907.7], [343230.0, 1145960.0], [332991.21, 1155198.54], [371713.93, 1161526.07], [340306.07, 1146826.07], [372080.0, 1140330.0], [372017.08, 1141574.16], [368430.0, 1138980.0], [364770.0, 1160120.0], [369100.0, 1170090.0], [369060.0, 1143770.0], [369500.0, 1143150.0], [370877.57, 1138902.43], [369941.62, 1143514.87], [327940.0, 1183100.0], [372976.07, 1155176.07], [372189.49, 1158436.84], [371355.86, 1181984.14], [367513.93, 1143373.93], [371772.43, 1183572.43], [365340.0, 1160580.0], [375240.0, 1150240.0], [371960.0, 1176360.0], [331237.7, 1144382.57], [331547.65, 1144529.66], [374630.0, 1143570.0], [336746.32, 1147121.03], [332972.92, 1145954.16], [355950.0, 1143630.0], [367343.93, 1144303.93], [371270.71, 1140439.29], [368633.93, 1137643.93], [362833.93, 1160593.93], [368451.61, 1183290.81], [371143.93, 1141456.07], [335520.0, 1145790.0], [359382.93, 1153927.07], [371610.0, 1165760.0], [364360.58, 1160522.91], [375810.0, 1143250.0], [332250.0, 1145990.0], [349873.93, 1142443.93], [371682.11, 1164948.94]]}, "properties": {"n_points": 159}}]}